{"type": "FeatureCollection", "features": [{"type": "Feature", "properties": {"regno": 1, "nome": "Rivalba", "ruolo": "capitale"}, "geometry": {"type": "Point", "coordinates": [9.0830353, 45.8115623]}}, {"type": "Feature", "properties": {"regno": 1, "nome": "centro 1", "ruolo": "centro"}, "geometry": {"type": "Point", "coordinates": [9.5214907, 45.5263333]}}, {"type": "Feature", "properties": {"regno": 1, "nome": "centro 2", "ruolo": "centro"}, "geometry": {"type": "Point", "coordinates": [9.0205888, 46.1920538]}}, {"type": "Feature", "properties": {"regno": 1, "nome": "centro 3", "ruolo": "centro"}, "geometry": {"type": "Point", "coordinates": [8.941541, 45.50507]}}, {"type": "Feature", "properties": {"regno": 1, "nome": "centro 4", "ruolo": "centro"}, "geometry": {"type": "Point", "coordinates": [9.4239921, 45.8960629]}}, {"type": "Feature", "properties": {"regno": 1, "nome": "centro 5", "ruolo": "centro"}, "geometry": {"type": "Point", "coordinates": [9.3738195, 46.1363111]}}, {"type": "Feature", "properties": {"regno": 1, "nome": "centro 6", "ruolo": "centro"}, "geometry": {"type": "Point", "coordinates": [9.2271378, 45.5931952]}}, {"type": "Feature", "properties": {"regno": 1, "nome": "centro 7", "ruolo": "centro"}, "geometry": {"type": "Point", "coordinates": [8.9512275, 46.0038007]}}, {"type": "Feature", "properties": {"regno": 1, "nome": "centro 8", "ruolo": "centro"}, "geometry": {"type": "Point", "coordinates": [8.8255843, 45.6752214]}}, {"type": "Feature", "properties": {"regno": 1, "nome": "centro 9", "ruolo": "centro"}, "geometry": {"type": "Point", "coordinates": [8.839608, 45.8524484]}}, {"type": "Feature", "properties": {"regno": 2, "nome": "Forterocca", "ruolo": "capitale"}, "geometry": {"type": "Point", "coordinates": [10.2200214, 45.5398022]}}, {"type": "Feature", "properties": {"regno": 2, "nome": "centro 1", "ruolo": "centro"}, "geometry": {"type": "Point", "coordinates": [11.3017774, 46.0091259]}}, {"type": "Feature", "properties": {"regno": 2, "nome": "centro 2", "ruolo": "centro"}, "geometry": {"type": "Point", "coordinates": [9.5696759, 46.1313095]}}, {"type": "Feature", "properties": {"regno": 2, "nome": "centro 3", "ruolo": "centro"}, "geometry": {"type": "Point", "coordinates": [10.3332567, 46.1806346]}}, {"type": "Feature", "properties": {"regno": 2, "nome": "centro 4", "ruolo": "centro"}, "geometry": {"type": "Point", "coordinates": [11.0161587, 45.5185311]}}, {"type": "Feature", "properties": {"regno": 2, "nome": "centro 5", "ruolo": "centro"}, "geometry": {"type": "Point", "coordinates": [9.589053, 45.616078]}}, {"type": "Feature", "properties": {"regno": 2, "nome": "centro 6", "ruolo": "centro"}, "geometry": {"type": "Point", "coordinates": [9.949656, 45.887088]}}, {"type": "Feature", "properties": {"regno": 2, "nome": "centro 7", "ruolo": "centro"}, "geometry": {"type": "Point", "coordinates": [10.8396942, 45.8847708]}}, {"type": "Feature", "properties": {"regno": 2, "nome": "centro 8", "ruolo": "centro"}, "geometry": {"type": "Point", "coordinates": [10.6067422, 45.6405622]}}, {"type": "Feature", "properties": {"regno": 2, "nome": "centro 9", "ruolo": "centro"}, "geometry": {"type": "Point", "coordinates": [11.3434053, 45.6111057]}}, {"type": "Feature", "properties": {"regno": 3, "nome": "Anguicorte", "ruolo": "capitale"}, "geometry": {"type": "Point", "coordinates": [9.1896346, 45.4641943]}}, {"type": "Feature", "properties": {"regno": 3, "nome": "centro 1", "ruolo": "centro"}, "geometry": {"type": "Point", "coordinates": [11.3111274, 45.192498]}}, {"type": "Feature", "properties": {"regno": 3, "nome": "centro 2", "ruolo": "centro"}, "geometry": {"type": "Point", "coordinates": [10.29831, 45.4715763]}}, {"type": "Feature", "properties": {"regno": 3, "nome": "centro 3", "ruolo": "centro"}, "geometry": {"type": "Point", "coordinates": [10.520223, 44.9267857]}}, {"type": "Feature", "properties": {"regno": 3, "nome": "centro 4", "ruolo": "centro"}, "geometry": {"type": "Point", "coordinates": [9.70437, 45.1600664]}}, {"type": "Feature", "properties": {"regno": 3, "nome": "centro 5", "ruolo": "centro"}, "geometry": {"type": "Point", "coordinates": [10.8691009, 45.4833716]}}, {"type": "Feature", "properties": {"regno": 3, "nome": "centro 6", "ruolo": "centro"}, "geometry": {"type": "Point", "coordinates": [8.9514237, 45.1548467]}}, {"type": "Feature", "properties": {"regno": 3, "nome": "centro 7", "ruolo": "centro"}, "geometry": {"type": "Point", "coordinates": [9.6437404, 45.4972605]}}, {"type": "Feature", "properties": {"regno": 3, "nome": "centro 8", "ruolo": "centro"}, "geometry": {"type": "Point", "coordinates": [10.7917191, 45.1566683]}}, {"type": "Feature", "properties": {"regno": 3, "nome": "centro 9", "ruolo": "centro"}, "geometry": {"type": "Point", "coordinates": [10.4130654, 45.2211195]}}, {"type": "Feature", "properties": {"regno": 4, "nome": "Savenza", "ruolo": "capitale"}, "geometry": {"type": "Point", "coordinates": [11.3426327, 44.4938203]}}, {"type": "Feature", "properties": {"regno": 4, "nome": "centro 1", "ruolo": "centro"}, "geometry": {"type": "Point", "coordinates": [8.8641282, 44.89666]}}, {"type": "Feature", "properties": {"regno": 4, "nome": "centro 2", "ruolo": "centro"}, "geometry": {"type": "Point", "coordinates": [9.8829911, 44.3771813]}}, {"type": "Feature", "properties": {"regno": 4, "nome": "centro 3", "ruolo": "centro"}, "geometry": {"type": "Point", "coordinates": [10.74309, 44.991873]}}, {"type": "Feature", "properties": {"regno": 4, "nome": "centro 4", "ruolo": "centro"}, "geometry": {"type": "Point", "coordinates": [9.6947461, 45.0534751]}}, {"type": "Feature", "properties": {"regno": 4, "nome": "centro 5", "ruolo": "centro"}, "geometry": {"type": "Point", "coordinates": [10.2166909, 44.7520202]}}, {"type": "Feature", "properties": {"regno": 4, "nome": "centro 6", "ruolo": "centro"}, "geometry": {"type": "Point", "coordinates": [10.7286395, 44.5102806]}}, {"type": "Feature", "properties": {"regno": 4, "nome": "centro 7", "ruolo": "centro"}, "geometry": {"type": "Point", "coordinates": [9.3244561, 44.3175701]}}, {"type": "Feature", "properties": {"regno": 4, "nome": "centro 8", "ruolo": "centro"}, "geometry": {"type": "Point", "coordinates": [11.6186451, 44.8372737]}}, {"type": "Feature", "properties": {"regno": 4, "nome": "centro 9", "ruolo": "centro"}, "geometry": {"type": "Point", "coordinates": [9.3862814, 44.769273]}}, {"type": "Feature", "properties": {"regno": 5, "nome": "Citt\u00e0-rovina della Selva", "ruolo": "capitale"}, "geometry": {"type": "Point", "coordinates": [10.806262296523613, 44.1587910883362]}}, {"type": "Feature", "properties": {"regno": 5, "nome": "centro 1", "ruolo": "centro"}, "geometry": {"type": "Point", "coordinates": [9.3958627, 44.2714526]}}, {"type": "Feature", "properties": {"regno": 5, "nome": "centro 2", "ruolo": "centro"}, "geometry": {"type": "Point", "coordinates": [10.0977529, 44.0796519]}}, {"type": "Feature", "properties": {"regno": 5, "nome": "centro 3", "ruolo": "centro"}, "geometry": {"type": "Point", "coordinates": [11.2383808, 44.0005414]}}, {"type": "Feature", "properties": {"regno": 5, "nome": "centro 4", "ruolo": "centro"}, "geometry": {"type": "Point", "coordinates": [9.8217022, 44.1033871]}}, {"type": "Feature", "properties": {"regno": 5, "nome": "centro 5", "ruolo": "centro"}, "geometry": {"type": "Point", "coordinates": [10.12599, 44.23835]}}, {"type": "Feature", "properties": {"regno": 6, "nome": "Leonalba", "ruolo": "capitale"}, "geometry": {"type": "Point", "coordinates": [11.2556404, 43.7697955]}}, {"type": "Feature", "properties": {"regno": 6, "nome": "centro 1", "ruolo": "centro"}, "geometry": {"type": "Point", "coordinates": [10.2257715, 43.994721]}}, {"type": "Feature", "properties": {"regno": 6, "nome": "centro 2", "ruolo": "centro"}, "geometry": {"type": "Point", "coordinates": [10.5173443, 43.3113449]}}, {"type": "Feature", "properties": {"regno": 6, "nome": "centro 3", "ruolo": "centro"}, "geometry": {"type": "Point", "coordinates": [11.4214524, 43.2310941]}}, {"type": "Feature", "properties": {"regno": 6, "nome": "centro 4", "ruolo": "centro"}, "geometry": {"type": "Point", "coordinates": [10.6929976, 43.6980639]}}, {"type": "Feature", "properties": {"regno": 6, "nome": "centro 5", "ruolo": "centro"}, "geometry": {"type": "Point", "coordinates": [11.5858271, 43.551208]}}, {"type": "Feature", "properties": {"regno": 6, "nome": "centro 6", "ruolo": "centro"}, "geometry": {"type": "Point", "coordinates": [11.148762, 43.4677215]}}, {"type": "Feature", "properties": {"regno": 6, "nome": "centro 7", "ruolo": "centro"}, "geometry": {"type": "Point", "coordinates": [10.9174238, 43.9336213]}}, {"type": "Feature", "properties": {"regno": 6, "nome": "centro 8", "ruolo": "centro"}, "geometry": {"type": "Point", "coordinates": [10.3091256, 43.5507317]}}, {"type": "Feature", "properties": {"regno": 6, "nome": "centro 9", "ruolo": "centro"}, "geometry": {"type": "Point", "coordinates": [10.860019, 43.400337]}}]}