{"type": "FeatureCollection", "features": [{"type": "Feature", "properties": {"nome": "la Gran Piana d'Occidente", "tipo": "terra_fuori_dai_regni", "nota": "al posto del mare a ovest: piana sterminata (forse deserto); la storia non ci passa — de-italianizza la mappa"}, "geometry": {"type": "MultiPolygon", "coordinates": [[[[11.120915281564189, 44.944389574496284], [11.120915281564189, 44.96190943126834], [11.134646363370297, 44.973593529312936], [11.13680118753915, 44.96236971988836], [11.153661225806479, 44.96375181865092], [11.142887898877165, 44.98527859575532], [11.16950714735222, 44.99830794721893], [11.167607137158415, 45.014491042090704], [11.184077433154085, 45.01643853851306], [11.176146767026204, 45.00333243150064], [11.18873322157097, 45.00415043648601], [11.192326375439665, 45.03201850989193], [11.239903610262473, 45.02544414655822], [11.241084740867842, 45.0424993294967], [11.212536142584266, 45.05702470997042], [11.178593504220439, 45.0534417631192], [11.195071115273263, 45.061230865725946], [11.22933353980639, 45.05315601902468], [11.236262491747835, 45.05928345980495], [11.23394699522636, 45.05106277141583], [11.244200079600095, 45.04762063049975], [11.269416998204001, 45.06186681429574], [11.266258022663198, 45.071128669096915], [11.214299031689665, 45.07876762022037], [11.186990641295267, 45.104112706186946], [11.173556083374852, 45.09677528059731], [11.170353719189665, 45.10602337394157], [11.180163876343496, 45.10719954491273], [11.195071168057792, 45.13328823594637], [11.204726823334465, 45.12716281042171], [11.206059285595915, 45.13718331669931], [11.228979838287113, 45.13360500387192], [11.230778523877165, 45.14497330238874], [11.251838623844701, 45.144492830925635], [11.247351612457148, 45.15666287901881], [11.26734789750419, 45.14110098461797], [11.387324503466585, 45.13913081312167], [11.396600203284928, 45.116875693358836], [11.428523194998311, 45.09823418083346], [11.432182372249049, 45.08217294541016], [11.447915934264017, 45.072888302285556], [11.445011978621672, 45.115762002208804], [11.458115602364085, 45.11995956703655], [11.420292722970439, 45.133296727465094], [11.424160023764193, 45.15428425813908], [11.401066609814665, 45.15082498784764], [11.406559773877165, 45.17223825230177], [11.417237022036296, 45.17471211666822], [11.417546102002165, 45.19171321652536], [11.443759064920743, 45.18587532535419], [11.455998250439665, 45.19755570579243], [11.480620611365268, 45.193837549700696], [11.505436727002165, 45.21703067001602], [11.585965213101957, 45.209572067371134], [11.586208363607943, 45.23023661861107], [11.546635496407939, 45.23066393755386], [11.567431942749746, 45.235734308788416], [11.571354695752165, 45.254033102040836], [11.581008561615715, 45.24790758860796], [11.625760408867242, 45.256086760609655], [11.620852833891217, 45.263705131737545], [11.560368406564189, 45.27156897345257], [11.586921631657201, 45.27692258764604], [11.593325562589042, 45.31245790680338], [11.631770304247835, 45.31440549113396], [11.642756632372835, 45.29299222667984], [11.629811791796943, 45.30634235503348], [11.609373510987853, 45.30451556969596], [11.601585425308956, 45.29531750701074], [11.608227236937754, 45.284421719347385], [11.625808681600565, 45.2794320125058], [11.631770304247835, 45.289088037643296], [11.64797707877054, 45.27186964980793], [11.681208780810335, 45.26571808057499], [11.653318823487862, 45.26556564124879], [11.635640722545622, 45.253319525979265], [11.635429442561549, 45.23602516277651], [11.650996378466585, 45.23261983758672], [11.6262817165865, 45.22317254589209], [11.637203806733783, 45.21321032577821], [11.650902782074102, 45.22093026095665], [11.67599753060446, 45.21149726071481], [11.667485105782939, 45.23261143397622], [11.686711141064665, 45.24429561992905], [11.69488811394939, 45.23618274151921], [11.709963354386655, 45.239365686944424], [11.705937215283415, 45.26571808057499], [11.716132576194706, 45.25772783897544], [11.725154093310335, 45.26766557699735], [11.726621118269595, 45.25105066547858], [11.749345142854608, 45.24824417291687], [11.745900715852441, 45.26489999574328], [11.731406993242395, 45.26403041734199], [11.7456539286648, 45.27468268326883], [11.730656453564665, 45.28714973741276], [11.73901208316822, 45.303895129604186], [11.730656453564665, 45.31440549113396], [11.751205793853035, 45.30827997770108], [11.760859659716585, 45.31440549113396], [11.770030698483835, 45.29273690346889], [11.774601766064665, 45.30272051259981], [11.79085213910816, 45.30313568707551], [11.783298556337384, 45.32591454990755], [11.763917596181162, 45.33192000589807], [11.744387574307792, 45.32220476092345], [11.725163289502165, 45.3377846443941], [11.74410298127649, 45.35762751254646], [11.736129504524499, 45.369150797118266], [11.744380281109004, 45.372830378224904], [11.766352823779085, 45.359197908848216], [11.791168939415982, 45.32431980999874], [11.799720830516378, 45.328762224917455], [11.788334676220915, 45.34556543389171], [11.839442804193952, 45.342753801824934], [11.829533406689665, 45.36309290169294], [11.865229737967061, 45.34167123362831], [11.867194587913469, 45.331732703025075], [11.884349876922705, 45.34051375779429], [11.873478775496672, 45.357258462462234], [11.878971922189189, 45.37672616923077], [11.892695597216585, 45.38256786591652], [11.900511206300362, 45.37299201932275], [11.922187088992468, 45.372609229487246], [11.903691121533415, 45.38452455853071], [11.920161417529085, 45.40399032656247], [11.930059511085382, 45.38118009548198], [11.939389281160958, 45.388410267275376], [11.953125, 45.37857927667927], [11.953120401904085, 44.46141125433262], [11.900942750089047, 44.443883874439614], [11.889958250314189, 44.44972548321714], [11.889510397172451, 44.469276836040365], [11.898193359375, 44.47493888164433], [11.890814962688681, 44.48086235936698], [11.862483194872835, 44.44972627579846], [11.808357639054563, 44.45556416696962], [11.799319214932792, 44.44777886728433], [11.797158773398353, 44.45900267670891], [11.785588094189665, 44.453621268643175], [11.774601766064665, 44.46141125433262], [11.780094930127165, 44.496456993743244], [11.794269967857218, 44.50676148986351], [11.766362019970915, 44.51788865058102], [11.766800558437103, 44.52744918039169], [11.728003467925898, 44.49256659899444], [11.674321192226083, 44.522642614397014], [11.642765828564665, 44.527626132692816], [11.650528661619894, 44.552772071457234], [11.618046590283415, 44.558786075450556], [11.621828731694462, 44.57863025278062], [11.609806883126689, 44.584102736359895], [11.623025064985072, 44.589391868185544], [11.637531627883819, 44.61396021506951], [11.626286336377165, 44.62110596096604], [11.629805344985828, 44.634385440810156], [11.618037394091585, 44.625000953810755], [11.608813955071984, 44.63052299347383], [11.590571573779085, 44.611368478854246], [11.580626205407512, 44.614024727159645], [11.554867796785958, 44.5957885953836], [11.519169637158415, 44.59968350032009], [11.527025582198657, 44.64238506528321], [11.499941773526542, 44.64252850952021], [11.4971923828125, 44.650215614717055], [11.52536309877993, 44.65507363570691], [11.51092529296875, 44.67378196076227], [11.532376619804742, 44.68741780528087], [11.523363008904129, 44.69838540045199], [11.508181519620292, 44.69316341650154], [11.499017290183213, 44.70224448865777], [11.499934327810811, 44.689267543167276], [11.486203246004703, 44.67368845227796], [11.458108065396445, 44.682948933443], [11.451572820806048, 44.66502504684406], [11.475215128466585, 44.669784175333184], [11.477961710497835, 44.660055889413215], [11.445011922314665, 44.6561608965685], [11.431279012158415, 44.681478350059166], [11.436772176220915, 44.691206635979135], [11.472473166226, 44.68896894913961], [11.450505086377165, 44.73210406084867], [11.477006039067035, 44.74715675281986], [11.472477742627165, 44.757421514339335], [11.497124178922421, 44.76639810017826], [11.458744832470915, 44.78664315686654], [11.464237996533415, 44.79831893920887], [11.474545605011711, 44.79815375995034], [11.475224324658415, 44.810003917743025], [11.494442992098458, 44.81389882267951], [11.519160440966585, 44.808056421320664], [11.522384677774435, 44.79840039618317], [11.549372843310335, 44.80026643563123], [11.552748655448415, 44.78244444588335], [11.568598917529085, 44.77689647856292], [11.57134550675356, 44.763263857184924], [11.56063880935791, 44.73575674637354], [11.57231896061958, 44.73278278049537], [11.579594441845915, 44.74768403222754], [11.589850663211221, 44.741620388642986], [11.585087644845439, 44.77300227829953], [11.59311074351889, 44.78193614185751], [11.582341023877165, 44.784695660444186], [11.57600128797722, 44.814511230272466], [11.563114949658415, 44.81975059604664], [11.569235684603555, 44.848486129343506], [11.55144296638943, 44.854800933553186], [11.524662801220915, 44.848963042382024], [11.508794145726382, 44.866725745747004], [11.505752626712693, 44.85499355641685], [11.516413858935335, 44.848963042382024], [11.481114260920988, 44.85103421368741], [11.44953162531792, 44.84049433704589], [11.442257933504708, 44.823645676799586], [11.423961362546335, 44.82973420517756], [11.395573445752165, 44.815855603201925], [11.379093953564665, 44.81975059604664], [11.395459099890951, 44.834146567318655], [11.373600845809172, 44.847007495923286], [11.384587117627165, 44.86258632114671], [11.400246958740771, 44.863559956156706], [11.399527009486157, 44.87176964470402], [11.346630009994303, 44.87614915462101], [11.351618937060335, 44.86064802091618], [11.299441285245292, 44.854805619557325], [11.293949910595915, 44.86648131399143], [11.312099054193952, 44.87535466045881], [11.308359279704325, 44.88206588346621], [11.281918826899316, 44.87075471613451], [11.293940675467061, 44.843119760533625], [11.260989136807792, 44.841173144600816], [11.226406117514205, 44.887477248275914], [11.214299031689665, 44.87233299945033], [11.192483805357767, 44.89378309257219], [11.175845093839042, 44.889860555159785], [11.166274674896965, 44.90182846995152], [11.159367391064665, 44.89375546009628], [11.151127683907939, 44.91322202070936], [11.169623612429968, 44.921241564326785], [11.131901570752165, 44.92296790643166], [11.136868807304742, 44.946231701353504], [11.120915281564189, 44.944389574496284]], [[11.75811767578125, 45.34178004629818], [11.766944343772828, 45.33672594745186], [11.771779508347397, 45.344473497240735], [11.763546580171283, 45.349394974321335], [11.75811767578125, 45.34178004629818]], [[11.764626711376811, 45.28742911877634], [11.765341550341939, 45.279071174167925], [11.769086194863474, 45.28372743074118], [11.764626711376811, 45.28742911877634]], [[11.744381519236345, 45.236514188071546], [11.75015524544821, 45.22902472851604], [11.760559775942546, 45.243778448176776], [11.752093343958393, 45.246118593584676], [11.744381519236345, 45.236514188071546]], [[11.757618036880697, 45.359128267366], [11.747630986556803, 45.34953926441046], [11.760796053922421, 45.35454201973063], [11.757618036880697, 45.359128267366]], [[11.755159083362624, 45.33469247752188], [11.74735586870434, 45.337369469918386], [11.749927527877524, 45.33212137942147], [11.755159083362624, 45.33469247752188]], [[11.744511624345916, 45.33643248688457], [11.736326372636935, 45.33915684950631], [11.738788157426487, 45.333824509408444], [11.744511624345916, 45.33643248688457]], [[11.716598447506057, 45.22463263093771], [11.708552340497803, 45.22153019796544], [11.714266504726117, 45.21901133156941], [11.716598447506057, 45.22463263093771]], [[11.705908992134907, 44.57454370590109], [11.697707741207344, 44.574144256553176], [11.702009014837946, 44.57022312609781], [11.705908992134907, 44.57454370590109]], [[11.666619553044866, 44.59221640735105], [11.636818224041592, 44.57259098460638], [11.675715577810811, 44.56462016110713], [11.678998067934174, 44.54887033295157], [11.692040375720186, 44.56535350869436], [11.690495867671125, 44.57391093010222], [11.667485066845915, 44.578261039674146], [11.666619553044866, 44.59221640735105]], [[11.653742793248469, 44.6483651191263], [11.66251857574666, 44.642350161224805], [11.667399525318501, 44.64543216227166], [11.659304982328717, 44.65413875153923], [11.653742793248469, 44.6483651191263]], [[11.590495327049332, 44.84309214559034], [11.601654779259732, 44.82770822229723], [11.612544230029085, 44.83532137123369], [11.62325784048929, 44.818102983398326], [11.639665017471076, 44.824088018124364], [11.621572045703193, 44.84868069577915], [11.590495327049332, 44.84309214559034]], [[11.6184137383237, 44.67852617836863], [11.609883189525249, 44.68051290963002], [11.612950198420975, 44.67355549329488], [11.6184137383237, 44.67852617836863]], [[11.596568974838034, 45.226698510645605], [11.606440229273618, 45.20705795234048], [11.61793224442222, 45.22364585179043], [11.596568974838034, 45.226698510645605]], [[11.587826343455095, 44.80805706368055], [11.602194668978555, 44.80658583793682], [11.607032303695174, 44.81756122547977], [11.597105697595012, 44.82240684435204], [11.587826343455095, 44.80805706368055]], [[11.585002064381001, 44.90639668286776], [11.576953834014796, 44.9085446183055], [11.580121114809174, 44.90331468182089], [11.585002064381001, 44.90639668286776]], [[11.5570282383204, 44.72386219014972], [11.5636993007421, 44.715037674248784], [11.565436104645707, 44.72034021815628], [11.5570282383204, 44.72386219014972]], [[11.550546067603149, 45.12878653342836], [11.542650232673601, 45.12053855603923], [11.551613932172572, 45.121058391489505], [11.550546067603149, 45.12878653342836]], [[11.533371005899435, 44.730084303643835], [11.538455372953726, 44.71659873807671], [11.552043080006001, 44.727252823766634], [11.533371005899435, 44.730084303643835]], [[11.531374795544036, 44.64918027655704], [11.539872064520617, 44.64145161409878], [11.540110802505104, 44.649294412809176], [11.531374795544036, 44.64918027655704]], [[11.491233113653836, 44.74565145885787], [11.502621287202533, 44.7263362201885], [11.527295037390951, 44.73134056453316], [11.510309858179856, 44.745980967560754], [11.491233113653836, 44.74565145885787]], [[11.458735469029719, 45.109921771225345], [11.499612141135069, 45.08809643239286], [11.494450398877165, 45.10212838109685], [11.516398169726534, 45.11635383788799], [11.458735469029719, 45.109921771225345]], [[11.486660878592545, 44.78456224576428], [11.48047392752594, 44.77524778279152], [11.489079495439697, 44.779448510089985], [11.486660878592545, 44.78456224576428]], [[11.433940151268082, 44.87619958477044], [11.43378203299469, 44.86872761106474], [11.466630349502326, 44.863037946571545], [11.462270287890703, 44.870103156425095], [11.433940151268082, 44.87619958477044]], [[11.464122826141454, 45.03318438933646], [11.45563165705181, 45.030984793544604], [11.460630877812829, 45.0278018744219], [11.464122826141454, 45.03318438933646]], [[11.458230143110072, 45.069575091939505], [11.445915282405299, 45.05880298834185], [11.457509602571191, 45.05621574798378], [11.458230143110072, 45.069575091939505]], [[11.403735509096323, 44.8897126137713], [11.404329923164008, 44.87632495824968], [11.414113864826925, 44.872328401354416], [11.436608246813936, 44.89058541122828], [11.41705622689505, 44.930966836089446], [11.409372835402603, 44.9065323752814], [11.423030069872835, 44.89180796367392], [11.403735509096323, 44.8897126137713]], [[11.370844954972078, 44.96969977053189], [11.384674798790982, 44.95624298617292], [11.392662934313936, 44.96264277885556], [11.374024926512138, 44.97733617073968], [11.370844954972078, 44.96969977053189]], [[11.37632351234419, 45.01283520517029], [11.368125952652708, 45.01216576175978], [11.372580319873185, 45.008369171460046], [11.37632351234419, 45.01283520517029]], [[11.343326377188136, 44.973708333393716], [11.356809942881338, 44.969720773605395], [11.362927251781302, 44.97613263363731], [11.346991720501181, 44.98331643633556], [11.343326377188136, 44.973708333393716]], [[11.3208221836329, 44.88160940036078], [11.330944830864036, 44.87282328358662], [11.331900494839193, 44.88028792074813], [11.3208221836329, 44.88160940036078]], [[11.263660143386085, 45.012690727040386], [11.304833446136602, 45.01839063303133], [11.318049115992356, 45.01230831010459], [11.326836092984921, 45.02110362382247], [11.278347204968682, 45.04563697979016], [11.277461222216585, 45.03202770608375], [11.26401469450476, 45.02970310954079], [11.263660143386085, 45.012690727040386]], [[11.287668676953057, 45.012270395257296], [11.293319682438405, 44.98934381911579], [11.321653779689834, 44.9919012861153], [11.302968530078193, 45.012270395257296], [11.287668676953057, 45.012270395257296]], [[11.247250171580095, 45.035914145096534], [11.259161420754287, 45.0170948605604], [11.26838410047722, 45.052105793800244], [11.259227621711386, 45.0545628527858], [11.247250171580095, 45.035914145096534]], [[11.241667974646518, 44.946161026746985], [11.233645535971073, 44.93286718221284], [11.245546993413237, 44.93622197208996], [11.241667974646518, 44.946161026746985]], [[11.177254385562714, 44.912724931983384], [11.17917186110389, 44.90003715784402], [11.186307283867242, 44.911176765751044], [11.177254385562714, 44.912724931983384]], [[11.148352839791157, 44.93288304761512], [11.140151588863594, 44.932483598267204], [11.144452862494196, 44.92856246781184], [11.148352839791157, 44.93288304761512]]], [[[11.756003262728555, 45.376257659802754], [11.755366495654085, 45.38062036949417], [11.760859659716585, 45.3708920835742], [11.756003262728555, 45.376257659802754]]], [[[11.170353758126689, 45.09239169156638], [11.173091105029085, 45.090452598754524], [11.170353719189665, 45.090452598754524], [11.170353758126689, 45.09239169156638]]], [[[11.527400187060335, 45.22093485905256], [11.524662801220915, 45.22482065570546], [11.527400187060335, 45.22482065570546], [11.527400187060335, 45.22093485905256]]], [[[11.55993553006833, 45.238168864471724], [11.532902547314665, 45.23846232685379], [11.532902547314665, 45.24429561992905], [11.557614378817208, 45.250138021287896], [11.55993553006833, 45.238168864471724]]], [[[11.609797647997835, 45.31830968017051], [11.604311890714047, 45.32219538891517], [11.609797647997835, 45.322195476823396], [11.609797647997835, 45.31830968017051]]], [[[11.733393839404085, 45.376725376649446], [11.725143176399499, 45.3726241738383], [11.725163328439189, 45.37477867280841], [11.733393839404085, 45.376725376649446]]], [[[11.719670125439665, 45.36893539096001], [11.722407511279085, 45.365049594307116], [11.719670125439665, 45.365049594307116], [11.719670125439665, 45.36893539096001]]], [[[11.453242472216585, 44.79637144278651], [11.450505086377165, 44.794433142555974], [11.450505086377165, 44.79637144278651], [11.453242472216585, 44.79637144278651]]], [[[11.950383016064665, 45.40205202633194], [11.953120401904085, 45.407885319407185], [11.953120401904085, 45.40205202633194], [11.950383016064665, 45.40205202633194]]], [[[11.950383016064665, 44.436093800841945], [11.953120401904085, 44.43803210107248], [11.953120401904085, 44.436093800841945], [11.950383016064665, 44.436093800841945]]], [[[11.925663777783415, 45.47020520492267], [11.953120401904085, 45.46825770850031], [11.953120401904085, 45.43515946551204], [11.933903562814189, 45.44489615504251], [11.925663777783415, 45.47020520492267]]], [[[11.920166015625, 45.42531919081588], [11.928410359814665, 45.429307780053136], [11.933894327685335, 45.429307780053136], [11.925654581591585, 45.41957949413317], [11.920166015625, 45.42531919081588]]], [[[11.920170613720915, 44.42635631873016], [11.922907999560335, 44.432189611805406], [11.922907999560335, 44.42635631873016], [11.920170613720915, 44.42635631873016]]], [[[11.865238973095915, 45.42542198340024], [11.867976358935335, 45.429307780053136], [11.867976358935335, 45.42542198340024], [11.865238973095915, 45.42542198340024]]], [[[11.856997437589047, 45.36310218579299], [11.859736612841585, 45.36698789453765], [11.859736612841585, 45.36310209788476], [11.856997437589047, 45.36310218579299]]], [[[11.777348387032939, 44.42440802972647], [11.782839722745292, 44.43024202747482], [11.785578897997835, 44.430242115383045], [11.785578897997835, 44.422461325885436], [11.777348387032939, 44.42440802972647]]], [[[11.708683836251689, 45.35725881603636], [11.711421183154085, 45.36309290169294], [11.714167765185335, 45.35531211219532], [11.708683836251689, 45.35725881603636]]], [[[11.689413180882964, 45.37665678913858], [11.683964559033415, 45.38062036949417], [11.689448487967061, 45.37867366565313], [11.689413180882964, 45.37665678913858]]], [[[11.692204305127165, 45.36699709072948], [11.694941690966585, 45.37088288738237], [11.694941690966585, 45.36699709072948], [11.692204305127165, 45.36699709072948]]], [[[11.689457723095915, 45.35336461577297], [11.692195108935335, 45.355302916003495], [11.692195108935335, 45.35336461577297], [11.689457723095915, 45.35336461577297]]], [[[11.672978230908415, 45.38062956568599], [11.675715616747835, 45.38646285876124], [11.675715616747835, 45.38062956568599], [11.672978230908415, 45.38062956568599]]], [[[11.656498738720915, 45.38452455853071], [11.659236124560335, 45.3884103551836], [11.659236124560335, 45.38452455853071], [11.656498738720915, 45.38452455853071]]], [[[11.609797647997835, 45.35531211219532], [11.612553426220915, 45.36309290169294], [11.618037394091585, 45.36309290169294], [11.609797647997835, 45.35531211219532]]], [[[11.609805054776547, 45.337784732302325], [11.615290812060335, 45.341670441046986], [11.615290773123311, 45.33973134823513], [11.609805054776547, 45.337784732302325]]], [[[11.604311890714042, 44.56657614904822], [11.609797647997835, 44.5743568506376], [11.609797609060811, 44.568522764981026], [11.604311890714042, 44.56657614904822]]], [[[11.593327352002165, 45.37283957999655], [11.596064737841585, 45.376725376649446], [11.596064737841585, 45.37283957999655], [11.593327352002165, 45.37283957999655]]], [[[11.576847859814665, 45.365049594307116], [11.579585245654085, 45.36698789453765], [11.579585245654085, 45.365049594307116], [11.576847859814665, 45.365049594307116]]], [[[11.571354695752165, 45.40205202633194], [11.574092081591585, 45.40399032656247], [11.574092081591585, 45.40205202633194], [11.571354695752165, 45.40205202633194]]], [[[11.563114949658415, 45.41957949413317], [11.568598917529085, 45.4215177943637], [11.568598917529085, 45.41957949413317], [11.563114949658415, 45.41957949413317]]], [[[11.543879640310811, 45.26572648418549], [11.538395711377165, 45.26961307341971], [11.543879679247835, 45.26961307341971], [11.543879640310811, 45.26572648418549]]], [[[11.541142293408415, 45.50526933671696], [11.543879679247835, 45.50720763694749], [11.543879679247835, 45.50526933671696], [11.541142293408415, 45.50526933671696]]], [[[11.538393921964042, 45.48384696397923], [11.538388304598458, 45.487732584815674], [11.541133097216585, 45.483846876071006], [11.538393921964042, 45.48384696397923]]], [[[11.516423055127165, 45.38647205495307], [11.519160554546506, 45.38841034960378], [11.519160440966585, 45.38647205495307], [11.516423055127165, 45.38647205495307]]], [[[11.532893351122835, 45.39231454422014], [11.524662801220915, 45.39620034087304], [11.532893351122835, 45.394252844450676], [11.532893351122835, 45.39231454422014]]], [[[11.516413858935335, 45.47605689038157], [11.516423055127165, 45.48189018345683], [11.521907022997835, 45.48189018345683], [11.516413858935335, 45.47605689038157]]], [[[11.5081787109375, 45.234464541424714], [11.516421265714042, 45.2404005391761], [11.521907022997835, 45.24040062708433], [11.521907022997835, 45.23456733400908], [11.5081787109375, 45.234464541424714]]], [[[11.510929891064665, 45.37283957999655], [11.513667276904085, 45.374777880227086], [11.513667276904085, 45.37283957999655], [11.510929891064665, 45.37283957999655]]], [[[11.488957234814665, 45.36310209788476], [11.491694620654085, 45.372830383804725], [11.491694620654085, 45.36310209788476], [11.488957234814665, 45.36310209788476]]], [[[11.480710081942208, 45.39426212855073], [11.477970906689665, 45.40009533371775], [11.483454835623311, 45.398148629876715], [11.480710081942208, 45.39426212855073]]], [[[11.472477742627165, 45.38062956568599], [11.475215128466585, 45.38451536233888], [11.475215128466585, 45.38062956568599], [11.472477742627165, 45.38062956568599]]], [[[11.395564249560335, 45.18003743418303], [11.390080281689665, 45.18781822368064], [11.392819456942208, 45.18781813577241], [11.395564249560335, 45.18003743418303]]], [[[11.357121297314665, 44.84312055311495], [11.362625378288, 44.84916925234845], [11.362605265185335, 44.84312055311495], [11.357121297314665, 44.84312055311495]]], [[[11.368098429247835, 44.852858035226745], [11.365361043408415, 44.85479633545727], [11.368098429247835, 44.85479633545727], [11.368098429247835, 44.852858035226745]]], [[[11.337895223095915, 45.15277248427], [11.343379190966585, 45.16055327376761], [11.340632608935335, 45.15277248427], [11.337895223095915, 45.15277248427]]], [[[11.324162312939665, 45.158614973537084], [11.326899698779085, 45.16055327376761], [11.326899698779085, 45.158614973537084], [11.324162312939665, 45.158614973537084]]], [[[11.310429402783415, 45.15082498784764], [11.313166788622835, 45.15276328807818], [11.313166788622835, 45.15082498784764], [11.310429402783415, 45.15082498784764]]], [[[11.228024535067203, 44.86064810882441], [11.225285359814665, 44.86453381756907], [11.230769327685335, 44.86453381756907], [11.228024535067203, 44.86064810882441]]], [[[11.167607137158415, 45.04760767746263], [11.170344522997835, 45.04954597769316], [11.170344522997835, 45.04760767746263], [11.167607137158415, 45.04760767746263]]], [[[11.137394734814665, 45.05150267030734], [11.140132081717061, 45.05538925954156], [11.140132120654085, 45.05150267030734], [11.137394734814665, 45.05150267030734]]], [[[11.120915242627165, 45.06708264168621], [11.126399210497835, 45.07096843833911], [11.126399210497835, 45.06708264168621], [11.120915242627165, 45.06708264168621]]], [[[11.112675496533415, 44.936600381388175], [11.115412882372835, 44.9385386816187], [11.115412882372835, 44.936600381388175], [11.112675496533415, 44.936600381388175]]], [[[11.107182332470915, 45.05150267030734], [11.109919718310335, 45.05344097053788], [11.109919718310335, 45.05150267030734], [11.107182332470915, 45.05150267030734]]], [[[11.1016845703125, 44.95402505660504], [11.109919718310335, 44.95022366015286], [11.109919718310335, 44.94633786349997], [11.107182332470915, 44.94633786349997], [11.1016845703125, 44.95402505660504]]], [[[11.090702840283415, 45.04760767746263], [11.096186808154085, 45.04954597769316], [11.096186808154085, 45.04760767746263], [11.090702840283415, 45.04760767746263]]], [[[11.054997273877165, 45.04566018104027], [11.057734659716585, 45.0475984812708], [11.057734659716585, 45.04566018104027], [11.054997273877165, 45.04566018104027]]], [[[10.750126668408415, 43.731100095948044], [10.752864054247835, 43.73303839617858], [10.752864054247835, 43.731100095948044], [10.750126668408415, 43.731100095948044]]], [[[10.717158487841585, 43.7096776353021], [10.719914266064665, 43.71940592122207], [10.725758416617516, 43.71928990320197], [10.717158487841585, 43.7096776353021]]], [[[10.736384562060335, 43.72136261383625], [10.730900594189665, 43.72330091406678], [10.736384562060335, 43.72330091406678], [10.736384562060335, 43.72136261383625]]], [[[10.56610107421875, 43.824477131636904], [10.585322550341585, 43.82457072802944], [10.585414627288522, 43.8187890559088], [10.577092000439665, 43.818737434954194], [10.56610107421875, 43.824477131636904]]], [[[10.582585164502165, 43.805104959997685], [10.601802042529085, 43.82262323160709], [10.614293636254324, 43.810538779325455], [10.640254190966585, 43.82262323160709], [10.664973429247835, 43.80704326022821], [10.65399169921875, 43.78962064007178], [10.663139403499049, 43.75203288893906], [10.690052850211263, 43.7601873280715], [10.640255980379703, 43.70383523394325], [10.642684873287307, 43.72116539287668], [10.626530515939189, 43.727204310522005], [10.621037369246672, 43.74667892117147], [10.626176247939826, 43.77349339181511], [10.593571492627165, 43.79147248504117], [10.59823522711088, 43.80177818309906], [10.582585164502165, 43.805104959997685]]], [[[10.697932413622835, 43.76226003870579], [10.695195027783415, 43.764198338936325], [10.697932413622835, 43.764198338936325], [10.697932413622835, 43.76226003870579]]], [[[10.629277059033415, 43.69993095699848], [10.634761026904085, 43.69604516034559], [10.629277059033415, 43.69604516034559], [10.629277059033415, 43.69993095699848]]], [[[10.648493937060335, 43.676570196122], [10.645756551220915, 43.678508496352535], [10.648493937060335, 43.678508496352535], [10.648493937060335, 43.676570196122]]], [[[10.621037312939665, 43.68825517465615], [10.623774698779085, 43.690193474886684], [10.623774698779085, 43.68825517465615], [10.621037312939665, 43.68825517465615]]], [[[10.607297048789237, 43.71552021507054], [10.599062867276542, 43.71940583331384], [10.612788370654085, 43.71940592122207], [10.607297048789237, 43.71552021507054]]], [[[10.588078328564665, 43.70578264245738], [10.593562296435335, 43.707720942687914], [10.593562296435335, 43.70578264245738], [10.588078328564665, 43.70578264245738]]], [[[10.585331746533415, 43.651252742631335], [10.588069132372835, 43.65319104286187], [10.588069132372835, 43.651252742631335], [10.585331746533415, 43.651252742631335]]], [[[10.579838582470915, 43.68825517465615], [10.582575968310335, 43.694088467731405], [10.582575968310335, 43.68825517465615], [10.579838582470915, 43.68825517465615]]], [[[8.437504598095915, 43.06895131234604], [8.4375, 44.23539887675462], [8.4539794921875, 44.2587667787625], [8.437504637032939, 44.26860831593776], [8.437504598095915, 44.28612738012849], [8.482729467667905, 44.30456740421218], [8.500107141028659, 44.322926977879035], [8.503402453743249, 44.340872686112796], [8.519833201265033, 44.33099444644966], [8.54214743294821, 44.33512387065333], [8.574833699658415, 44.362079740600485], [8.602398366011013, 44.36007629822902], [8.625489908058746, 44.37072850353144], [8.638005086377165, 44.38934469051351], [8.682182810259052, 44.39158276070989], [8.687441773526542, 44.406872070406514], [8.750613160245292, 44.43024202747482], [8.843991384726737, 44.426347032036965], [8.861489504345572, 44.4143827626406], [8.87753611891639, 44.415110548676665], [8.890681437060335, 44.428294618960685], [8.889234647345859, 44.411387568567875], [8.926388792879708, 44.41466205609595], [8.939341040234307, 44.39546952638346], [8.945622273877165, 44.40687215831474], [8.953852823779085, 44.40492466189238], [8.953428686769112, 44.3914538224539], [9.102168253466585, 44.37181722271228], [9.116212518056162, 44.35625940056236], [9.146113565966585, 44.365974733445206], [9.152285449675789, 44.31712214362771], [9.168026560640024, 44.307624489381354], [9.176325968310335, 44.313392330041516], [9.187252634858783, 44.30178200011427], [9.214057206179968, 44.30148619718988], [9.217461092984921, 44.32584740104036], [9.209294148877165, 44.33676228710982], [9.221850888062246, 44.335990961658624], [9.225769993233289, 44.352342079282224], [9.244211645703057, 44.337044633712694], [9.327699334462405, 44.315361975692824], [9.345531216159241, 44.324187443855706], [9.349362425692208, 44.336762199201594], [9.350724067989278, 44.306397648439976], [9.382319581717061, 44.29002316555454], [9.38188108218788, 44.280461843162556], [9.420771730154561, 44.27249569775331], [9.400027139294036, 44.26941847419707], [9.403204042335368, 44.25552716335857], [9.429011515185335, 44.260809926637826], [9.430103549465768, 44.24239259411662], [9.439997843310335, 44.24522995525896], [9.457408628171335, 44.23135135328332], [9.486691527254703, 44.24133487450601], [9.52731007248986, 44.20672843148427], [9.555354288622835, 44.20433253038942], [9.569087159842061, 44.19264834443659], [9.570904609538617, 44.18127042626613], [9.582820108935335, 44.18485756616583], [9.593614764458938, 44.1720846110963], [9.618525675341585, 44.1770675804764], [9.604878306712749, 44.158558056681954], [9.618525675341585, 44.15175012698573], [9.628884432583945, 44.13469957222302], [9.667964151904085, 44.1439601412963], [9.669431176863345, 44.13513521546696], [9.684443644091585, 44.13617015560686], [9.699217514001262, 44.119881432344954], [9.722895792529085, 44.11669519138327], [9.741295471865707, 44.091763103448926], [9.758601358935335, 44.09137773789261], [9.765394315314621, 44.07252319107742], [9.780574015185335, 44.07579776651374], [9.813844353993655, 44.05244995867438], [9.84919936975865, 44.06061038847812], [9.808049070626689, 44.1069585018528], [9.825436352374165, 44.10564859103528], [9.838259591835763, 44.12448508657134], [9.871211222216585, 44.11669519138327], [9.8602294921875, 44.107062556916276], [9.870047194115601, 44.091993731665944], [9.906918578035958, 44.083587664294946], [9.944936152434163, 44.03897107144714], [9.948115519091585, 44.04853281660071], [9.95337431815094, 44.035199142295156], [9.97947518490152, 44.036974155918934], [9.984715621981257, 44.04537889401436], [9.95551788953972, 44.08809506473261], [9.931645262032939, 44.09917612719254], [9.930228524593536, 44.1123039023939], [9.917912312939665, 44.11086189830802], [9.906905871711999, 44.13638556176512], [9.920649698779085, 44.1342226591845], [9.943663314782595, 44.106248957388395], [9.975581339404085, 44.105010212849116], [9.982315780712806, 44.09053785123435], [10.003047159716585, 44.08748274504789], [10.01894825608361, 44.06650868907443], [10.049739054247835, 44.06411278797958], [10.06014698655236, 44.04508622842848], [10.093684366747835, 44.04269032733364], [10.103549937173307, 44.02365108566333], [10.184321573779085, 43.99400291677466], [10.196398214165264, 43.96940903993457], [10.233760050341585, 43.95505298832749], [10.261225870654085, 43.9355780241039], [10.263344881802695, 43.92436995860827], [10.274958780810335, 43.92973553483682], [10.27249858122351, 43.916480160000916], [10.289386460116956, 43.89610438650618], [10.321650675341585, 43.898575592079084], [10.302950528632758, 43.88504927926903], [10.357356241747835, 43.86157316005426], [10.36285400390625, 43.84999097410447], [10.356320682368066, 43.839781486301774], [10.385599684674196, 43.78674457669204], [10.403580419432394, 43.783844817886155], [10.403748252505046, 43.79873610278651], [10.395817586377165, 43.801209967152964], [10.401308961026542, 43.81483315800943], [10.420527628466585, 43.80704326022821], [10.42081401091101, 43.78599789970287], [10.443863716426778, 43.755256160912424], [10.461728148348458, 43.75835576176102], [10.471329536739278, 43.74162368595591], [10.511164835497835, 43.71745842479971], [10.507200521628754, 43.70273723066236], [10.544123819872835, 43.68629848204197], [10.548838110546807, 43.67489585011069], [10.557858519442208, 43.68435089771138], [10.577082765310811, 43.66292931755498], [10.566098265535958, 43.6259353770489], [10.525688712867776, 43.624188048628426], [10.502926878817208, 43.60840790924767], [10.456330072228482, 43.604335991741735], [10.456233194872835, 43.59088035353821], [10.445055194146438, 43.59975831576302], [10.434262328035958, 43.59088044144644], [10.414877034485983, 43.59480297885884], [10.412287882372835, 43.58698536069349], [10.355475173517634, 43.58925574983625], [10.354609659716585, 43.567510396469906], [10.337706030519112, 43.573191250218954], [10.30519504234331, 43.55221288840116], [10.332154790221544, 43.47456441751642], [10.382075480029085, 43.450651414936544], [10.408103777895676, 43.40465792661015], [10.426022581942208, 43.40196391646935], [10.451605544611406, 43.38021865101123], [10.478225964225501, 43.38659943915696], [10.464898368010543, 43.368944625547535], [10.479569282833028, 43.344334415794705], [10.507956746466336, 43.328053413467075], [10.557856843609006, 43.337696616859915], [10.513933824667776, 43.31286105131403], [10.555110147997835, 43.263691758390095], [10.55264994841101, 43.244593894287114], [10.56666085708757, 43.206920685054186], [10.577082765310811, 43.203320161878295], [10.555111937410958, 43.174116207061644], [10.541563189043185, 43.17938331711035], [10.544123763565828, 43.11179508748249], [10.535884073779085, 43.06895131234604], [9.843848194488398, 43.068946714250124], [9.826589450764425, 43.08063169278428], [9.807946239105352, 43.068946714250124], [8.437504598095915, 43.06895131234604]], [[10.30792236328125, 43.651147894986536], [10.31644389372351, 43.61267071811294], [10.32724257894477, 43.60064180458918], [10.351796598191147, 43.63286971505871], [10.340172379707983, 43.67318270808062], [10.328443631720871, 43.674002282291234], [10.30792236328125, 43.651147894986536]], [[10.343321173350088, 43.74665791809797], [10.336269568249932, 43.73500909385105], [10.34760519897359, 43.741219806277286], [10.343321173350088, 43.74665791809797]], [[10.27496337890625, 43.76605018390571], [10.28073832731726, 43.72952050345447], [10.307917765185335, 43.70577344626555], [10.306406413053809, 43.692968252332584], [10.340179380335321, 43.69711298416096], [10.331410969758691, 43.730272814924504], [10.313420125439665, 43.72720510310333], [10.315074673190491, 43.743674939202165], [10.294194051220915, 43.750575060171634], [10.284328480795443, 43.76961430184194], [10.27496337890625, 43.76605018390571]], [[10.268939047083393, 43.81665621957328], [10.276487631003754, 43.782584583979066], [10.285839959265951, 43.78485730326676], [10.277714615340422, 43.80315631741988], [10.283198526904085, 43.80899075665057], [10.294629431463056, 43.77333324543014], [10.307917765185335, 43.779778310315194], [10.306399209606536, 43.76923146252542], [10.31863365157959, 43.76979852088355], [10.309133943079912, 43.82401656947495], [10.302424601122835, 43.81289494568712], [10.293328103717569, 43.82455606503205], [10.268939047083393, 43.81665621957328]], [[10.30515652015669, 43.60479529180485], [10.296958960465208, 43.60412584839434], [10.301413327685685, 43.600329258094604], [10.30515652015669, 43.60479529180485]], [[10.302352340340363, 43.619412847644895], [10.294272827540189, 43.624895875108905], [10.297409091836935, 43.61627006781135], [10.302352340340363, 43.619412847644895]], [[10.260303774172401, 43.846248511886344], [10.26460168279217, 43.82038121323807], [10.270352420133213, 43.81905962180692], [10.260303774172401, 43.846248511886344]], [[10.252459554895886, 43.85950114086518], [10.256268472447864, 43.85002190047866], [10.258046540401995, 43.85765417143167], [10.252459554895886, 43.85950114086518]], [[10.188339468494108, 43.95116259357869], [10.1941354796817, 43.93923428525354], [10.19805908203125, 43.94347285743813], [10.188339468494108, 43.95116259357869]], [[9.922073014740715, 44.124777397430336], [9.921702141455242, 44.11641023987007], [9.926503325222523, 44.12039851162665], [9.922073014740715, 44.124777397430336]], [[9.8822021484375, 43.43108079925999], [9.898559241078697, 43.41965778422239], [9.909508637438936, 43.44018898884803], [9.887266577394112, 43.44465648634327], [9.8822021484375, 43.43108079925999]], [[9.835505488560969, 44.0426961190864], [9.850335996727132, 44.03740756405438], [9.859499831440122, 44.058730882700594], [9.85102088313042, 44.05954827167999], [9.835505488560969, 44.0426961190864]], [[9.613568277135364, 44.14409386025485], [9.609658358365195, 44.1532299065614], [9.607981291629255, 44.14594082968836], [9.613568277135364, 44.14409386025485]], [[9.561477680842877, 44.19443401395369], [9.56133732779243, 44.18075362935276], [9.566620813158423, 44.1835146048482], [9.561477680842877, 44.19443401395369]]], [[[10.566096476122835, 43.341600811476276], [10.563359090283415, 43.34353911170681], [10.566096476122835, 43.34353911170681], [10.566096476122835, 43.341600811476276]]], [[[10.574336222216585, 43.680465188966714], [10.571598836377165, 43.68240348919725], [10.574336222216585, 43.68240348919725], [10.574336222216585, 43.680465188966714]]], [[[8.500666788622835, 44.346499769221616], [8.497929402783415, 44.34456146899108], [8.497929402783415, 44.346499769221616], [8.500666788622835, 44.346499769221616]]], [[[9.220271280810335, 44.35623725133341], [9.209294148877165, 44.35429895110288], [9.209294148877165, 44.35623725133341], [9.220271280810335, 44.35623725133341]]], [[[9.904190319694251, 44.13985893848515], [9.895939656689665, 44.14396933748812], [9.895939656689665, 44.14785513414101], [9.898677042529085, 44.14785513414101], [9.904190319694251, 44.13985893848515]]], [[[10.486445597216585, 43.390288222035245], [10.480961629345915, 43.39417401868814], [10.486445597216585, 43.39417401868814], [10.486445597216585, 43.390288222035245]]], [[[10.549626180127165, 43.15464115492983], [10.552363565966585, 43.15852695158272], [10.552363565966585, 43.15464115492983], [10.549626180127165, 43.15464115492983]]], [[[10.552363565966585, 43.81094744926476], [10.546879598095915, 43.814833245917654], [10.552363565966585, 43.814833245917654], [10.552363565966585, 43.81094744926476]]], [[[10.513920613720915, 43.81289494568712], [10.51666063934555, 43.81483311623332], [10.51842483223547, 43.81386409580239], [10.513920613720915, 43.81289494568712]]], [[[10.524905152432792, 43.810947537172986], [10.527644327685335, 43.814833245917654], [10.529640370038853, 43.811198086262294], [10.524905152432792, 43.810947537172986]]], [[[10.533146687939665, 43.80705245642004], [10.538630655810335, 43.81093825307293], [10.538630655810335, 43.80705245642004], [10.533146687939665, 43.80705245642004]]], [[[10.453495809033415, 43.834317406333064], [10.461728148348458, 43.83820311507773], [10.464472940966585, 43.834317406333064], [10.453495809033415, 43.834317406333064]]], [[[10.428776570752165, 43.84405488844486], [10.431513956591585, 43.847940685097754], [10.431513956591585, 43.84405488844486], [10.428776570752165, 43.84405488844486]]], [[[10.404052734375, 43.83810960659342], [10.412287995952754, 43.83625646094142], [10.417781046435335, 43.822632427798915], [10.412297078564665, 43.822632427798915], [10.404052734375, 43.83810960659342]]], [[[10.420527628466585, 43.840159895600145], [10.417790242627165, 43.84209819583067], [10.420527628466585, 43.84209819583067], [10.420527628466585, 43.840159895600145]]], [[[10.329899617627165, 43.633725274830105], [10.335383585497835, 43.63566357506064], [10.335383585497835, 43.633725274830105], [10.329899617627165, 43.633725274830105]]], [[[10.302424601122835, 43.79731497430825], [10.296938843839042, 43.80314817947527], [10.302424562185811, 43.80120156354246], [10.302424601122835, 43.79731497430825]]]]}}]}