{"type": "FeatureCollection", "features": [{"type": "Feature", "properties": {"nome": "Po", "ruolo": "divisore R3/R4; il grande guado"}, "geometry": {"type": "LineString", "coordinates": [[8.9813, 45.08548], [8.98291, 45.08669], [8.9843, 45.08745], [8.98511, 45.08763], [8.98636, 45.08741], [8.98938, 45.08679], [8.99106, 45.08637], [8.99213, 45.08611], [8.99386, 45.08529], [8.995, 45.08486], [8.99723, 45.08401], [9.45554, 45.0936], [9.45938, 45.09431], [9.46514, 45.09478], [9.47017, 45.09429], [9.47927, 45.09539], [9.48353, 45.0967], [9.49896, 45.10111], [9.50339, 45.10129], [9.50528, 45.1013], [9.50666, 45.10097], [9.51203, 45.09653], [9.51384, 45.09523], [9.51722, 45.09321], [9.51995, 45.08769], [9.52265, 45.08456], [9.52629, 45.08174], [9.52987, 45.08047], [9.53309, 45.12597], [9.53321, 45.08007], [9.53322, 45.12076], [9.53349, 45.12289], [9.53369, 45.11627], [9.53371, 45.13034], [9.53424, 45.07969], [9.53426, 45.13259], [9.53683, 45.13511], [9.53708, 45.07953], [9.53724, 45.11087], [9.53948, 45.10933], [9.53973, 45.13718], [9.54061, 45.08065], [9.54131, 45.13744], [9.54254, 45.10722], [9.54317, 45.13743], [9.54456, 45.13684], [9.54495, 45.08311], [9.5457, 45.13616], [9.54706, 45.10405], [9.5476, 45.08492], [9.54823, 45.10124], [9.54987, 45.08673], [9.54999, 45.13331], [9.55069, 45.09788], [9.55201, 45.08884], [9.55265, 45.09452], [9.55278, 45.13108], [9.553, 45.0905], [9.55356, 45.09244], [9.55391, 45.12936], [9.55549, 45.12748], [9.55696, 45.12592], [9.55948, 45.12035], [9.56138, 45.11632], [9.5632, 45.11355], [9.56513, 45.11113], [9.56864, 45.10797], [9.57414, 45.1041], [9.57546, 45.10298], [9.57973, 45.10059], [9.58508, 45.09976], [9.59057, 45.09962], [9.59531, 45.10108], [9.60198, 45.10333], [9.61338, 45.10832], [9.61519, 45.10987], [9.6163, 45.11156], [9.61681, 45.11706], [9.61704, 45.12109], [9.61781, 45.12455], [9.61928, 45.12687], [9.62293, 45.13113], [9.62519, 45.13217], [9.62801, 45.13221], [9.63089, 45.13136], [9.63157, 45.08715], [9.63227, 45.08523], [9.63247, 45.09182], [9.63483, 45.08316], [9.63499, 45.12864], [9.63539, 45.09571], [9.63715, 45.09827], [9.63781, 45.12646], [9.63917, 45.12458], [9.63985, 45.1024], [9.64073, 45.12098], [9.6409, 45.10901], [9.64105, 45.07997], [9.64201, 45.11782], [9.64325, 45.11339], [9.64326, 45.07955], [9.64328, 45.11541], [9.6486, 45.07953], [9.65503, 45.08039], [9.66376, 45.08163], [9.6708, 45.08007], [9.67579, 45.07886], [9.68011, 45.07656], [9.68301, 45.07431], [9.68662, 45.07064], [9.688, 45.06899], [9.69116, 45.06637], [9.69297, 45.06516], [9.69536, 45.06357], [9.70218, 45.06087], [9.70623, 45.05952], [9.70928, 45.05847], [9.71093, 45.05777], [9.71101, 45.06057], [9.71161, 45.0606], [9.71314, 45.06069], [9.71519, 45.0574], [9.71757, 45.05779], [9.7186, 45.06025], [9.72128, 45.05855], [9.72285, 45.05916], [9.7238, 45.05954], [9.72612, 45.06045], [9.73106, 45.06319], [9.73338, 45.06501], [9.73515, 45.0664], [9.73935, 45.06993], [9.74452, 45.07704], [9.74943, 45.08288], [9.75229, 45.08635], [9.75448, 45.10648], [9.75532, 45.10882], [9.75545, 45.10227], [9.75672, 45.1108], [9.75767, 45.0907], [9.75772, 45.0988], [9.75835, 45.11198], [9.75909, 45.11223], [9.75954, 45.09343], [9.75959, 45.09596], [9.75968, 45.11228], [9.76393, 45.11033], [9.76714, 45.10828], [9.76829, 45.1066], [9.76982, 45.1044], [9.77186, 45.10198], [9.77295, 45.10032], [9.77534, 45.09677], [9.777, 45.09365], [9.77925, 45.09061], [9.78083, 45.08891], [9.78199, 45.08805], [9.78408, 45.0862], [9.79122, 45.08101], [9.79523, 45.07802], [9.80106, 45.07652], [9.80612, 45.07726], [9.81191, 45.07835], [9.8141, 45.07836], [9.81569, 45.07764], [9.81723, 45.07621], [9.82106, 45.07324], [9.82367, 45.07052], [9.82482, 45.06932], [9.8257, 45.0657], [9.82684, 45.0635], [9.82786, 45.06229], [9.82983, 45.0615], [9.83143, 45.08521], [9.83155, 45.08967], [9.83231, 45.09236], [9.83253, 45.06077], [9.8328, 45.08112], [9.83295, 45.0607], [9.83407, 45.0608], [9.83567, 45.06196], [9.83592, 45.07437], [9.83606, 45.06278], [9.83643, 45.06698], [9.83654, 45.09601], [9.84023, 45.09835], [9.84638, 45.09906], [9.85413, 45.09735], [9.85853, 45.09615], [9.86151, 45.09482], [9.86747, 45.09048], [9.87151, 45.08648], [9.87504, 45.07952], [9.87658, 45.1241], [9.87659, 45.12178], [9.87663, 45.12492], [9.87679, 45.11914], [9.87685, 45.12582], [9.87714, 45.11806], [9.87726, 45.07729], [9.87764, 45.11728], [9.87767, 45.12724], [9.87857, 45.12864], [9.87915, 45.11581], [9.87996, 45.07611], [9.88038, 45.13075], [9.88178, 45.114], [9.8818, 45.07565], [9.88335, 45.13453], [9.88434, 45.0756], [9.88446, 45.13516], [9.88573, 45.1358], [9.88963, 45.07611], [9.89188, 45.10526], [9.89289, 45.13751], [9.89438, 45.07803], [9.89579, 45.10159], [9.89712, 45.13713], [9.8977, 45.10006], [9.89858, 45.08151], [9.89875, 45.08177], [9.89885, 45.09891], [9.89956, 45.09781], [9.90021, 45.13942], [9.90045, 45.09396], [9.90057, 45.09342], [9.90125, 45.09199], [9.90201, 45.08684], [9.90204, 45.09012], [9.90254, 45.08832], [9.90301, 45.09253], [9.90523, 45.09321], [9.90558, 45.13753], [9.90654, 45.09369], [9.90685, 45.14025], [9.90742, 45.13739], [9.90795, 45.09421], [9.90929, 45.09462], [9.90932, 45.13747], [9.91027, 45.1404], [9.91067, 45.1368], [9.91179, 45.09522], [9.91325, 45.13514], [9.91372, 45.14031], [9.91422, 45.13466], [9.91526, 45.09582], [9.91567, 45.13407], [9.91729, 45.1399], [9.91819, 45.09646], [9.91925, 45.13939], [9.92002, 45.09725], [9.92033, 45.13058], [9.92103, 45.1388], [9.92149, 45.09817], [9.92164, 45.12306], [9.92184, 45.1248], [9.92209, 45.12149], [9.92284, 45.13762], [9.92285, 45.12805], [9.92297, 45.09894], [9.92334, 45.12054], [9.92349, 45.1274], [9.92399, 45.1362], [9.92472, 45.11975], [9.92507, 45.12979], [9.92525, 45.1342], [9.92579, 45.13198], [9.92673, 45.11897], [9.92782, 45.10099], [9.92878, 45.11862], [9.93017, 45.10262], [9.93114, 45.11875], [9.9321, 45.10411], [9.93342, 45.11933], [9.9345, 45.10653], [9.93911, 45.11015], [9.94072, 45.12217], [9.94089, 45.11106], [9.94316, 45.12243], [9.94647, 45.12174], [9.94888, 45.11422], [9.95316, 45.11968], [9.95616, 45.11904], [9.95811, 45.11711], [9.96034, 45.11845], [9.96364, 45.12016], [9.96673, 45.12464], [9.96772, 45.12617], [9.9705, 45.13046], [9.97416, 45.13286], [9.97939, 45.13341], [9.98725, 45.13185], [9.9915, 45.12999], [9.99424, 45.12853], [10.00123, 45.12403], [10.00232, 45.11664], [10.00274, 45.1214], [10.00355, 45.1127], [10.00712, 45.10914], [10.02478, 45.10302], [10.02792, 45.10108], [10.02949, 45.09961], [10.03025, 45.08873], [10.03043, 45.08555], [10.03056, 45.09777], [10.03112, 45.09361], [10.03128, 45.08327], [10.03282, 45.08036], [10.04321, 45.07108], [10.04664, 45.06763], [10.04733, 45.04501], [10.04784, 45.04192], [10.04802, 45.05502], [10.04819, 45.0644], [10.04841, 45.05965], [10.04965, 45.03904], [10.05038, 45.03818], [10.05131, 45.0374], [10.05231, 45.03658], [10.05449, 45.03538], [10.0578, 45.03355], [10.06656, 45.03173], [10.07987, 45.03111], [10.08324, 45.03063], [10.08836, 45.02882], [10.09033, 45.02802], [10.09247, 45.02676], [10.09738, 45.02214], [10.10045, 45.01901], [10.10312, 45.01851], [10.10827, 45.01802], [10.1128, 45.01879], [10.1165, 45.02122], [10.1175, 45.0222], [10.12247, 45.02671], [10.12558, 45.02898], [10.12887, 45.03088], [10.13148, 45.03184], [10.13398, 45.03249], [10.13814, 45.03287], [10.1494, 45.0319], [10.15101, 45.03196], [10.15353, 45.03207], [10.15569, 45.03246], [10.15774, 45.03288], [10.16039, 45.03403], [10.16323, 45.03619], [10.16537, 45.03898], [10.1667, 45.04091], [10.16843, 45.04214], [10.17195, 45.04338], [10.17504, 45.04366], [10.17887, 45.04296], [10.18324, 45.04081], [10.18756, 45.03816], [10.18898, 45.03728], [10.19688, 45.03267], [10.20345, 45.02879], [10.20941, 45.02527], [10.21576, 45.02296], [10.22197, 45.02256], [10.22432, 45.02284], [10.23485, 45.02738], [10.23636, 45.02806], [10.23948, 45.02871], [10.2429, 45.02878], [10.24534, 45.02817], [10.24693, 45.02728], [10.24863, 45.02616], [10.25009, 45.01338], [10.25012, 45.01327], [10.25047, 45.02396], [10.25061, 45.01714], [10.25078, 45.01022], [10.25135, 45.02137], [10.25335, 45.00707], [10.25988, 45.00427], [10.26863, 45.00525], [10.2755, 45.00561], [10.27917, 45.00557], [10.28631, 45.00549], [10.29078, 45.00306], [10.2981, 44.99046], [10.30168, 44.98711], [10.30588, 44.98543], [10.30879, 44.98492], [10.31099, 44.98453], [10.32444, 44.98457], [10.32951, 44.98373], [10.33404, 44.98223], [10.33854, 44.97977], [10.34269, 44.9755], [10.34727, 44.96914], [10.34996, 44.96647], [10.35379, 44.96417], [10.35689, 44.96298], [10.35941, 44.96252], [10.36186, 44.9627], [10.36677, 44.96395], [10.36899, 44.9648], [10.37118, 44.96627], [10.37285, 44.96794], [10.37833, 44.97342], [10.38102, 44.97721], [10.38532, 44.98325], [10.38903, 44.98641], [10.39309, 44.98851], [10.39548, 44.98928], [10.39891, 44.98945], [10.40108, 44.98921], [10.40756, 44.98718], [10.41027, 44.98638], [10.4192, 44.97849], [10.42127, 44.97643], [10.42302, 44.97462], [10.42537, 44.97137], [10.42708, 44.96886], [10.42782, 44.94432], [10.42807, 44.94307], [10.42865, 44.96428], [10.42884, 44.95739], [10.43015, 44.93935], [10.43103, 44.9386], [10.43285, 44.93775], [10.43602, 44.93649], [10.44198, 44.93575], [10.47893, 44.93605], [10.48548, 44.93505], [10.48913, 44.93378], [10.49422, 44.93139], [10.49916, 44.92619], [10.505, 44.91873], [10.51167, 44.91261], [10.51525, 44.911], [10.52057, 44.90986], [10.52358, 44.91005], [10.53025, 44.91189], [10.53703, 44.91279], [10.54285, 44.91203], [10.54808, 44.9109], [10.56873, 44.90451], [10.57697, 44.90363], [10.58152, 44.90374], [10.58558, 44.90442], [10.59069, 44.90607], [10.59429, 44.90838], [10.59973, 44.91191], [10.60478, 44.91844], [10.60839, 44.92127], [10.61172, 44.92271], [10.62513, 44.92521], [10.62811, 44.92576], [10.63176, 44.92816], [10.63353, 44.93059], [10.63519, 44.93595], [10.63727, 44.9419], [10.64147, 44.94779], [10.64426, 44.94988], [10.66225, 45.04281], [10.66241, 45.0447], [10.66281, 45.04652], [10.66358, 44.95814], [10.66375, 45.04063], [10.66396, 45.04796], [10.66644, 45.04868], [10.66656, 44.96117], [10.66753, 45.03774], [10.66837, 45.0492], [10.66845, 44.96501], [10.67009, 45.036], [10.6712, 44.97885], [10.67155, 45.04907], [10.67379, 44.98296], [10.6739, 45.0345], [10.67506, 45.0198], [10.67532, 45.024], [10.67575, 45.0311], [10.67587, 45.03265], [10.67658, 45.01725], [10.67688, 44.98553], [10.67915, 45.01433], [10.68241, 45.01196], [10.68718, 45.01064], [10.69008, 45.04742], [10.69519, 45.00957], [10.69756, 44.99624], [10.69858, 45.00748], [10.69866, 44.99682], [10.69988, 45.00556], [10.70017, 45.00415], [10.70043, 44.99937], [10.70072, 45.0025], [10.70456, 45.05203], [10.71061, 45.05247], [10.71416, 45.05257], [10.71586, 45.05214], [10.71834, 45.05122], [10.72078, 45.04925], [10.72105, 45.04908], [10.72615, 45.04571], [10.72923, 45.04298], [10.73338, 45.0405], [10.7371, 45.03934], [10.73947, 45.03923], [10.74129, 45.03959], [10.74304, 45.04012], [10.75276, 45.04482], [10.75372, 45.04521], [10.75432, 45.04536], [10.75677, 45.0458], [10.76202, 45.04627], [10.76509, 45.04655], [10.76768, 45.04643], [10.78468, 45.04072], [10.78964, 45.03978], [10.79754, 45.04014], [10.80143, 45.04142], [10.80475, 45.04135], [10.81178, 45.04305], [10.81921, 45.04307], [10.82878, 45.04076], [10.83444, 45.04087], [10.83776, 45.0422], [10.83924, 45.04292], [10.84063, 45.0439], [10.8497, 45.05254], [10.85172, 45.05415], [10.86244, 45.06097], [10.86616, 45.06215], [10.87011, 45.06289], [10.87431, 45.06215], [10.87833, 45.06009], [10.88282, 45.05652], [10.88602, 45.05206], [10.88879, 45.05], [10.89191, 45.04862], [10.89566, 45.04812], [10.89989, 45.04848], [10.90288, 45.05001], [10.90531, 45.05184], [10.90664, 45.06914], [10.90665, 45.07014], [10.90672, 45.06423], [10.907, 45.0541], [10.90731, 45.05559], [10.90774, 45.05736], [10.90961, 45.07772], [10.911, 45.07872], [10.91462, 45.0789], [10.91818, 45.07876], [10.92266, 45.07861], [10.93448, 45.07347], [10.93869, 45.07125], [10.95242, 45.06504], [10.97435, 45.06837], [10.98419, 45.06984], [10.98604, 45.07], [10.99484, 45.06836], [11.00114, 45.06661], [11.00647, 45.06367], [11.00764, 45.06303], [11.01383, 45.05757], [11.01739, 45.05491], [11.02091, 45.054], [11.03199, 45.05076], [11.05178, 45.04841], [11.06124, 45.0452], [11.06941, 45.04272], [11.07322, 45.04244], [11.0808, 45.043], [11.08639, 45.0438], [11.09354, 45.04564], [11.09677, 45.04733], [11.10031, 45.04982], [11.10579, 45.05149], [11.11122, 45.05298], [11.11401, 45.05477], [11.11513, 45.05678], [11.11743, 45.0632], [11.11769, 45.06391], [11.11948, 45.06649], [11.12059, 45.06727], [11.12162, 45.06775], [11.12261, 45.06814], [11.12416, 45.06844], [11.12594, 45.06833], [11.12693, 45.0679], [11.12848, 45.06674], [11.12945, 45.06578], [11.12993, 45.06505], [11.1303, 45.06422], [11.13057, 45.06314], [11.13091, 45.06209], [11.13136, 45.06099], [11.13251, 45.0592], [11.1339, 45.0575], [11.13475, 45.05653], [11.13513, 45.05605], [11.13529, 45.05586], [11.13539, 45.05573], [11.1357, 45.05533], [11.1372, 45.05369], [11.13863, 45.05221], [11.14034, 45.05062], [11.1422, 45.04925], [11.14412, 45.04812], [11.14665, 45.04707], [11.14874, 45.0464], [11.15113, 45.04588], [11.15351, 45.04564], [11.15583, 45.04549], [11.15892, 45.04509], [11.16087, 45.04476], [11.16289, 45.0448], [11.16436, 45.04523], [11.16652, 45.04609], [11.16921, 45.04719], [11.16961, 45.04743], [11.17069, 45.0479], [11.17261, 45.0486], [11.17481, 45.04939], [11.17662, 45.05005], [11.17872, 45.05095], [11.18096, 45.05202], [11.18537, 45.05358], [11.18735, 45.05418], [11.18979, 45.05483], [11.19227, 45.05498], [11.20022, 45.05852], [11.20695, 45.05845], [11.2109, 45.05809], [11.21567, 45.05655], [11.22014, 45.05391], [11.22789, 45.04771], [11.22976, 45.0464], [11.23375, 45.04363], [11.2362, 45.04295], [11.24812, 45.04389], [11.25076, 45.04551], [11.25159, 45.04805], [11.25384, 45.05163], [11.25669, 45.05354], [11.25805, 45.0546], [11.26058, 45.02479], [11.26058, 45.05591], [11.26142, 45.02885], [11.26166, 45.0226], [11.2625, 45.0564], [11.26259, 45.03096], [11.26372, 45.02041], [11.26383, 45.03425], [11.26459, 45.02952], [11.26483, 45.05617], [11.26515, 45.0365], [11.26542, 45.02903], [11.26602, 45.01914], [11.26648, 45.01903], [11.26648, 45.02871], [11.26749, 45.02843], [11.26835, 45.0285], [11.26855, 45.05493], [11.26918, 45.02841], [11.26973, 45.04255], [11.26996, 45.02837], [11.27029, 45.02831], [11.2703, 45.04415], [11.27051, 45.05422], [11.27053, 45.02817], [11.27073, 45.02787], [11.27073, 45.05272], [11.27088, 45.02728], [11.27102, 45.0496], [11.2713, 45.04696], [11.27362, 45.02239], [11.27374, 45.02216], [11.27388, 45.02182], [11.27523, 45.01853], [11.2753, 45.01832], [11.27551, 45.01775], [11.27557, 45.01757], [11.27568, 45.01727], [11.27571, 45.01709], [11.29306, 45.01413], [11.30226, 45.01143], [11.31474, 45.00779], [11.31916, 45.00294], [11.32591, 44.99463], [11.33259, 44.991], [11.33729, 44.98928], [11.34257, 44.98793], [11.34933, 44.98607], [11.356, 44.98432], [11.38085, 44.97585], [11.38984, 44.97194], [11.3972, 44.96875], [11.40806, 44.96808], [11.41513, 44.96745], [11.42089, 44.93078], [11.42111, 44.93285], [11.42185, 44.96617], [11.42228, 44.92827], [11.42255, 44.93717], [11.42525, 44.92626], [11.42617, 44.94476], [11.42693, 44.96485], [11.42703, 44.94752], [11.42799, 44.92562], [11.4298, 44.96196], [11.43002, 44.95285], [11.43055, 44.95742], [11.43269, 44.92647], [11.43885, 44.92941], [11.44135, 44.93061], [11.44196, 44.93087], [11.46702, 44.93621], [11.50798, 44.93621], [11.52062, 44.93827], [11.52543, 44.93796], [11.53014, 44.93754], [11.53713, 44.93629], [11.54329, 44.93086], [11.55016, 44.92812], [11.55766, 44.92175], [11.58094, 44.91561], [11.58718, 44.91154], [11.58804, 44.89817], [11.58988, 44.90871], [11.59253, 44.89043], [11.59698, 44.88815], [11.60462, 44.88859], [11.60577, 44.88864], [11.62036, 44.88781], [11.62421, 44.88833], [11.62482, 44.88634], [11.62504, 44.88614], [11.62531, 44.88593], [11.62561, 44.88575], [11.62563, 44.8888], [11.6259, 44.88562], [11.62624, 44.88557], [11.6266, 44.88556], [11.62764, 44.88575], [11.62967, 44.88603], [11.63055, 44.88625], [11.6316, 44.88658], [11.6332, 44.8872], [11.63435, 44.8877], [11.63501, 44.88805], [11.63631, 44.88859], [11.63676, 44.88864], [11.63742, 44.88881], [11.63775, 44.889], [11.63896, 44.88987], [11.63987, 44.8907], [11.64033, 44.89104], [11.64067, 44.89136], [11.64164, 44.89215], [11.64253, 44.8929], [11.6428, 44.89657], [11.64329, 44.89336], [11.64378, 44.89366], [11.64451, 44.89393], [11.64513, 44.89422], [11.64547, 44.89826], [11.64573, 44.89454], [11.64596, 44.89475], [11.64628, 44.89534], [11.64639, 44.89594], [11.66992, 44.91373], [11.69361, 44.91798], [11.71679, 44.92588], [11.73927, 44.9288], [11.74013, 44.94934], [11.74079, 44.94502], [11.74097, 44.95421], [11.74339, 44.93113], [11.74387, 44.94003], [11.74432, 44.95783], [11.74495, 44.93763], [11.74505, 44.93375], [11.74531, 44.93601], [11.74941, 44.95885], [11.76275, 44.95951], [11.78299, 44.96292], [11.78648, 44.96434], [11.7997, 44.97533], [11.80488, 44.97715], [11.81085, 44.97827], [11.81727, 44.97792], [11.83437, 44.97302], [11.84265, 44.97208], [11.84914, 44.97231], [11.85471, 44.973], [11.86577, 44.97474], [11.87405, 44.97461], [11.87522, 44.97458], [11.89262, 44.97688], [11.89726, 44.97715], [11.92705, 44.97491], [11.93645, 44.9764], [11.9503, 44.9825], [11.9614, 44.98638], [11.96573, 44.98694], [11.97257, 44.98658], [11.98475, 44.98456], [11.99872, 44.98065], [12.01252, 44.97679], [12.01631, 44.97584], [12.0492, 44.97598]]}}]}