{"type": "FeatureCollection", "properties": {"descrizione": "Confini canonici dei sei regni (congelati); derivati dalle regole di manifest_taglio.json su DEM Terrarium z9 + Po OSM", "crs": "WGS84"}, "features": [{"type": "Feature", "properties": {"id": 1, "nome": "Laghi del Vespro", "capitale": "Rivalba", "animale": "la Lince dei laghi", "governo": "libero comune di lago", "fazione": "conteso", "colore": "#2f7d77", "area_km2": 14918}, "geometry": {"type": "Polygon", "coordinates": [[[8.4375, 46.55886030311718], [8.4375, 45.49942224935397], [9.5526123046875, 45.49942224935397], [9.5526123046875, 46.55886030311718], [8.4375, 46.55886030311718]]]}}, {"type": "Feature", "properties": {"id": 2, "nome": "Conca Ruggente", "capitale": "Forterocca", "animale": "la Leonessa", "governo": "libero comune", "fazione": "turchino / fieramente libero", "colore": "#6a4c93", "area_km2": 24067}, "geometry": {"type": "Polygon", "coordinates": [[[9.5526123046875, 46.55886030311718], [9.5526123046875, 45.49942224935397], [11.35162353515625, 45.49942224935397], [11.35162353515625, 46.55886030311718], [9.5526123046875, 46.55886030311718]]]}}, {"type": "Feature", "properties": {"id": 3, "nome": "Gran Ducato", "capitale": "Anguicorte", "animale": "la Serpe (la grande Serpe)", "governo": "Gran Ducato", "fazione": "vermiglio", "colore": "#d9a83a", "area_km2": 15746}, "geometry": {"type": "MultiPolygon", "coordinates": [[[[11.326904296875, 45.00281066165246], [11.32965087890625, 45.0008631652301], [11.326904296875, 45.0008631652301], [11.326904296875, 45.00281066165246]]], [[[11.3214111328125, 45.008653150919535], [11.32415771484375, 45.006705654497175], [11.3214111328125, 45.006705654497175], [11.3214111328125, 45.008653150919535]]], [[[11.26922607421875, 45.01839063303133], [11.26373291015625, 45.03202310798784], [11.27197265625, 45.03786559725492], [11.26922607421875, 45.01839063303133]]], [[[11.2939453125, 45.03786559725492], [11.2939453125, 45.043708086521995], [11.2994384765625, 45.043708086521995], [11.31317138671875, 45.028128115143126], [11.32965087890625, 45.024233122298405], [11.32965087890625, 45.01839063303133], [11.31591796875, 45.010600647341896], [11.304931640625, 45.01839063303133], [11.27471923828125, 45.02033812945369], [11.2774658203125, 45.03786559725492], [11.27197265625, 45.043708086521995], [11.2884521484375, 45.045655582944356], [11.282958984375, 45.03786559725492], [11.2939453125, 45.03786559725492]], [[11.29669189453125, 45.0339706044102], [11.304931640625, 45.030075611565486], [11.30218505859375, 45.03591810083256], [11.29669189453125, 45.0339706044102]]], [[[11.2335205078125, 45.045655582944356], [11.239013671875, 45.043708086521995], [11.2335205078125, 45.043708086521995], [11.2335205078125, 45.045655582944356]]], [[[11.27197265625, 45.04955057578907], [11.26373291015625, 45.03981309367728], [11.25823974609375, 45.05539306505615], [11.2664794921875, 45.05539306505615], [11.27197265625, 45.04955057578907]]], [[[11.18682861328125, 45.05539306505615], [11.1895751953125, 45.05344556863379], [11.18682861328125, 45.05344556863379], [11.18682861328125, 45.05539306505615]]], [[[11.19232177734375, 45.05734056147851], [11.195068359375, 45.05539306505615], [11.19232177734375, 45.05539306505615], [11.19232177734375, 45.05734056147851]]], [[[11.195068359375, 45.059288057900865], [11.2005615234375, 45.05734056147851], [11.195068359375, 45.05734056147851], [11.195068359375, 45.059288057900865]]], [[[11.260986328125, 45.09044800065861], [11.2554931640625, 45.094342993503325], [11.260986328125, 45.096290489925686], [11.260986328125, 45.09044800065861]]], [[[11.20880126953125, 45.098237986348046], [11.2115478515625, 45.096290489925686], [11.20880126953125, 45.096290489925686], [11.20880126953125, 45.098237986348046]]], [[[11.2554931640625, 45.109922964882195], [11.25823974609375, 45.10797546845984], [11.2554931640625, 45.10797546845984], [11.2554931640625, 45.109922964882195]]], [[[11.2005615234375, 45.111870461304555], [11.2060546875, 45.109922964882195], [11.2005615234375, 45.109922964882195], [11.2005615234375, 45.111870461304555]]], [[[11.195068359375, 45.115765454149276], [11.2005615234375, 45.113817957726916], [11.195068359375, 45.113817957726916], [11.195068359375, 45.115765454149276]]], [[[11.25823974609375, 45.13913541121758], [11.26373291015625, 45.13718791479522], [11.25823974609375, 45.13718791479522], [11.25823974609375, 45.13913541121758]]], [[[11.0906982421875, 45.043708086521995], [11.02752685546875, 45.05149807221143], [10.98907470703125, 45.07097303643502], [10.953369140625, 45.065130547167946], [10.9259033203125, 45.078763022124456], [10.91217041015625, 45.078763022124456], [10.90667724609375, 45.05149807221143], [10.8984375, 45.047603079366716], [10.87646484375, 45.063183050745586], [10.85174560546875, 45.05539306505615], [10.84075927734375, 45.041760590099635], [10.78582763671875, 45.03981309367728], [10.76385498046875, 45.047603079366716], [10.733642578125, 45.03981309367728], [10.70892333984375, 45.05344556863379], [10.70343017578125, 45.00281066165246], [10.69793701171875, 45.0008631652301], [10.689697265625, 45.043708086521995], [10.689697265625, 45.010600647341896], [10.6787109375, 45.008653150919535], [10.67596435546875, 45.030075611565486], [10.6732177734375, 45.0008631652301], [10.67047119140625, 45.03981309367728], [10.66497802734375, 45.047603079366716], [10.64849853515625, 44.958018243938206], [10.634765625, 44.92880579760283], [10.6072998046875, 44.92101581191339], [10.59356689453125, 44.905435840534516], [10.56884765625, 44.90348834411216], [10.5413818359375, 44.91322582622395], [10.513916015625, 44.9112783298016], [10.491943359375, 44.9346482868699], [10.43426513671875, 44.93659578329226], [10.42877197265625, 44.96970322247236], [10.40679931640625, 44.98917818669595], [10.39306640625, 44.98917818669595], [10.37384033203125, 44.96580822962764], [10.360107421875, 44.96191323678293], [10.33538818359375, 44.98333569742887], [10.30517578125, 44.98528319385123], [10.29144287109375, 45.00475815807482], [10.25848388671875, 45.00475815807482], [10.24749755859375, 45.028128115143126], [10.21728515625, 45.02228562587605], [10.18157958984375, 45.043708086521995], [10.17059326171875, 45.043708086521995], [10.15960693359375, 45.03202310798784], [10.13763427734375, 45.0339706044102], [10.11566162109375, 45.01839063303133], [10.1019287109375, 45.01839063303133], [10.08819580078125, 45.030075611565486], [10.052490234375, 45.03591810083256], [10.0469970703125, 45.07097303643502], [10.03326416015625, 45.080710518546816], [10.030517578125, 45.10213297919276], [10.00579833984375, 45.111870461304555], [10.0030517578125, 45.125502936261064], [9.98931884765625, 45.133292921950506], [9.97283935546875, 45.133292921950506], [9.96185302734375, 45.11771295057163], [9.94537353515625, 45.12160794341635], [9.93438720703125, 45.10797546845984], [9.920654296875, 45.13524041837286], [9.9151611328125, 45.1001854827704], [9.90966796875, 45.14108290763994], [9.90692138671875, 45.092395497080965], [9.90142822265625, 45.08265801496917], [9.89593505859375, 45.125502936261064], [9.89044189453125, 45.08655300781389], [9.88494873046875, 45.13524041837286], [9.88494873046875, 45.09044800065861], [9.876708984375, 45.12355543983871], [9.876708984375, 45.08265801496917], [9.86297607421875, 45.096290489925686], [9.8382568359375, 45.098237986348046], [9.8382568359375, 45.061235554323225], [9.83551025390625, 45.078763022124456], [9.8272705078125, 45.063183050745586], [9.8162841796875, 45.078763022124456], [9.7998046875, 45.076815525702095], [9.788818359375, 45.08265801496917], [9.76959228515625, 45.109922964882195], [9.75860595703125, 45.111870461304555], [9.75311279296875, 45.08460551139153], [9.7393798828125, 45.0670780435903], [9.72015380859375, 45.05734056147851], [9.7064208984375, 45.059288057900865], [9.67620849609375, 45.080710518546816], [9.64874267578125, 45.080710518546816], [9.64599609375, 45.113817957726916], [9.63775634765625, 45.127450432683425], [9.63226318359375, 45.08655300781389], [9.63226318359375, 45.133292921950506], [9.6185302734375, 45.125502936261064], [9.61578369140625, 45.10797546845984], [9.5965576171875, 45.1001854827704], [9.580078125, 45.1001854827704], [9.55535888671875, 45.127450432683425], [9.55535888671875, 45.094342993503325], [9.54986572265625, 45.08655300781389], [9.547119140625, 45.13718791479522], [9.5416259765625, 45.109922964882195], [9.5361328125, 45.13524041837286], [9.5306396484375, 45.080710518546816], [9.5086669921875, 45.10213297919276], [9.4757080078125, 45.094342993503325], [9.052734375, 45.08460551139153], [8.4375, 45.08655300781389], [8.4375, 45.49942224935397], [11.35162353515625, 45.49942224935397], [11.35162353515625, 45.13913541121758], [11.32965087890625, 45.14108290763994], [11.31866455078125, 45.133292921950506], [11.29669189453125, 45.144977900484655], [11.2884521484375, 45.13718791479522], [11.26373291015625, 45.14108290763994], [11.25274658203125, 45.15276788617409], [11.25823974609375, 45.13913541121758], [11.24176025390625, 45.14108290763994], [11.24176025390625, 45.146925396907015], [11.23077392578125, 45.144977900484655], [11.2335205078125, 45.13524041837286], [11.22528076171875, 45.131345425528146], [11.217041015625, 45.13718791479522], [11.2060546875, 45.12160794341635], [11.2005615234375, 45.12355543983871], [11.2005615234375, 45.133292921950506], [11.195068359375, 45.133292921950506], [11.195068359375, 45.12160794341635], [11.18682861328125, 45.12355543983871], [11.18133544921875, 45.10602797203748], [11.17034912109375, 45.10602797203748], [11.1785888671875, 45.098237986348046], [11.1895751953125, 45.10797546845984], [11.1895751953125, 45.098237986348046], [11.20330810546875, 45.08655300781389], [11.21429443359375, 45.08655300781389], [11.21429443359375, 45.078763022124456], [11.2225341796875, 45.08265801496917], [11.25274658203125, 45.06902554001266], [11.26922607421875, 45.07292053285738], [11.2774658203125, 45.05149807221143], [11.25823974609375, 45.059288057900865], [11.239013671875, 45.045655582944356], [11.21978759765625, 45.059288057900865], [11.195068359375, 45.061235554323225], [11.18133544921875, 45.05539306505615], [11.1785888671875, 45.04955057578907], [11.151123046875, 45.045655582944356], [11.1236572265625, 45.07097303643502], [11.11541748046875, 45.05344556863379], [11.0906982421875, 45.043708086521995]], [[11.31866455078125, 45.13718791479522], [11.3214111328125, 45.13913541121758], [11.31866455078125, 45.13913541121758], [11.31866455078125, 45.13718791479522]], [[11.09619140625, 45.047603079366716], [11.0906982421875, 45.04955057578907], [11.0906982421875, 45.047603079366716], [11.09619140625, 45.047603079366716]], [[11.32415771484375, 45.160557871863524], [11.326904296875, 45.15861037544117], [11.326904296875, 45.160557871863524], [11.32415771484375, 45.160557871863524]], [[11.337890625, 45.15276788617409], [11.3433837890625, 45.160557871863524], [11.337890625, 45.15861037544117], [11.337890625, 45.15276788617409]], [[11.24725341796875, 45.15666287901881], [11.25, 45.15471538259645], [11.25, 45.15666287901881], [11.24725341796875, 45.15666287901881]], [[11.3104248046875, 45.15276788617409], [11.31317138671875, 45.15082038975173], [11.31317138671875, 45.15276788617409], [11.3104248046875, 45.15276788617409]], [[11.2060546875, 45.13718791479522], [11.20880126953125, 45.13524041837286], [11.20880126953125, 45.13718791479522], [11.2060546875, 45.13718791479522]], [[11.17034912109375, 45.092395497080965], [11.173095703125, 45.09044800065861], [11.173095703125, 45.092395497080965], [11.17034912109375, 45.092395497080965]], [[11.2335205078125, 45.059288057900865], [11.23626708984375, 45.05734056147851], [11.23626708984375, 45.059288057900865], [11.2335205078125, 45.059288057900865]]], [[[11.634521484375, 44.887908372733285], [11.63726806640625, 44.891803365578006], [11.64276123046875, 44.891803365578006], [11.6400146484375, 44.887908372733285], [11.634521484375, 44.887908372733285]]], [[[11.44500732421875, 44.940490776136976], [11.4422607421875, 44.93270079044754], [11.43402099609375, 44.93270079044754], [11.43402099609375, 44.940490776136976], [11.44500732421875, 44.940490776136976]]], [[[11.42852783203125, 44.9443857689817], [11.4312744140625, 44.938543279714615], [11.42852783203125, 44.938543279714615], [11.42852783203125, 44.9443857689817]]], [[[11.44500732421875, 44.942438272559336], [11.4532470703125, 44.940490776136976], [11.44500732421875, 44.940490776136976], [11.44500732421875, 44.942438272559336]]], [[[11.546630859375, 44.942438272559336], [11.5411376953125, 44.940490776136976], [11.5411376953125, 44.9443857689817], [11.546630859375, 44.942438272559336]]], [[[11.47796630859375, 44.94828076182641], [11.4862060546875, 44.9443857689817], [11.47796630859375, 44.9443857689817], [11.47796630859375, 44.94828076182641]]], [[[11.52740478515625, 44.94633326540406], [11.51641845703125, 44.942438272559336], [11.4971923828125, 44.942438272559336], [11.51092529296875, 44.95022825824877], [11.52740478515625, 44.94633326540406]]], [[[11.42578125, 44.95217575467113], [11.4202880859375, 44.9443857689817], [11.41754150390625, 44.96386073320528], [11.42303466796875, 44.96191323678293], [11.42578125, 44.95217575467113]]], [[[11.40655517578125, 44.977493208161796], [11.436767578125, 44.96970322247236], [11.436767578125, 44.94633326540406], [11.4312744140625, 44.94828076182641], [11.43402099609375, 44.96191323678293], [11.42852783203125, 44.96775572605], [11.41204833984375, 44.96970322247236], [11.40655517578125, 44.977493208161796]]], [[[11.7828369140625, 44.96970322247236], [11.78558349609375, 44.96580822962764], [11.7828369140625, 44.96580822962764], [11.7828369140625, 44.96970322247236]]], [[[11.392822265625, 44.975545711739436], [11.39556884765625, 44.97944070458416], [11.3983154296875, 44.97944070458416], [11.3983154296875, 44.975545711739436], [11.392822265625, 44.975545711739436]]], [[[11.32965087890625, 45.0008631652301], [11.36810302734375, 44.995020675963026], [11.37359619140625, 44.98528319385123], [11.34613037109375, 44.98723069027359], [11.32965087890625, 45.0008631652301]]], [[[11.3433837890625, 45.01839063303133], [11.3323974609375, 45.02033812945369], [11.3433837890625, 45.02228562587605], [11.3433837890625, 45.01839063303133]]], [[[11.348876953125, 45.045655582944356], [11.35162353515625, 45.041760590099635], [11.348876953125, 45.041760590099635], [11.348876953125, 45.045655582944356]]], [[[11.3323974609375, 45.094342993503325], [11.326904296875, 45.1001854827704], [11.3323974609375, 45.1001854827704], [11.3323974609375, 45.094342993503325]]], [[[11.33514404296875, 45.125502936261064], [11.32965087890625, 45.131345425528146], [11.33514404296875, 45.133292921950506], [11.33514404296875, 45.125502936261064]]]]}}, {"type": "Feature", "properties": {"id": 4, "nome": "Piana dei Savi", "capitale": "Savenza", "animale": "la Dotta (il Gufo)", "governo": "comune dei saggi + Gran Ducato dell'Aquila", "fazione": "turchino vs Aquila", "colore": "#d97a32", "area_km2": 26229}, "geometry": {"type": "MultiPolygon", "coordinates": [[[[9.305419921875, 44.321186913826864], [9.30267333984375, 44.3192394174045], [9.30267333984375, 44.321186913826864], [9.305419921875, 44.321186913826864]]], [[[9.32464599609375, 44.31534442455979], [9.30267333984375, 44.323134410249224], [9.30267333984375, 44.59967890222418], [8.4375, 44.59967890222418], [8.4375, 45.08655300781389], [9.052734375, 45.08460551139153], [9.4757080078125, 45.094342993503325], [9.5086669921875, 45.10213297919276], [9.5306396484375, 45.080710518546816], [9.5361328125, 45.13524041837286], [9.5416259765625, 45.109922964882195], [9.547119140625, 45.13718791479522], [9.54986572265625, 45.08655300781389], [9.55535888671875, 45.094342993503325], [9.55535888671875, 45.127450432683425], [9.580078125, 45.1001854827704], [9.5965576171875, 45.1001854827704], [9.61578369140625, 45.10797546845984], [9.6185302734375, 45.125502936261064], [9.63226318359375, 45.133292921950506], [9.63226318359375, 45.08655300781389], [9.63775634765625, 45.127450432683425], [9.64599609375, 45.113817957726916], [9.64874267578125, 45.080710518546816], [9.67620849609375, 45.080710518546816], [9.7064208984375, 45.059288057900865], [9.72015380859375, 45.05734056147851], [9.7393798828125, 45.0670780435903], [9.75311279296875, 45.08460551139153], [9.75860595703125, 45.111870461304555], [9.76959228515625, 45.109922964882195], [9.788818359375, 45.08265801496917], [9.7998046875, 45.076815525702095], [9.8162841796875, 45.078763022124456], [9.8272705078125, 45.063183050745586], [9.83551025390625, 45.078763022124456], [9.8382568359375, 45.061235554323225], [9.8382568359375, 45.098237986348046], [9.86297607421875, 45.096290489925686], [9.876708984375, 45.08265801496917], [9.876708984375, 45.12355543983871], [9.88494873046875, 45.09044800065861], [9.88494873046875, 45.13524041837286], [9.89044189453125, 45.08655300781389], [9.89593505859375, 45.125502936261064], [9.90142822265625, 45.08265801496917], [9.90692138671875, 45.092395497080965], [9.90966796875, 45.14108290763994], [9.9151611328125, 45.1001854827704], [9.920654296875, 45.13524041837286], [9.93438720703125, 45.10797546845984], [9.94537353515625, 45.12160794341635], [9.96185302734375, 45.11771295057163], [9.97283935546875, 45.133292921950506], [9.98931884765625, 45.133292921950506], [10.0030517578125, 45.125502936261064], [10.00579833984375, 45.111870461304555], [10.030517578125, 45.10213297919276], [10.03326416015625, 45.080710518546816], [10.0469970703125, 45.07097303643502], [10.052490234375, 45.03591810083256], [10.08819580078125, 45.030075611565486], [10.1019287109375, 45.01839063303133], [10.11566162109375, 45.01839063303133], [10.13763427734375, 45.0339706044102], [10.15960693359375, 45.03202310798784], [10.17059326171875, 45.043708086521995], [10.18157958984375, 45.043708086521995], [10.21728515625, 45.02228562587605], [10.24749755859375, 45.028128115143126], [10.25848388671875, 45.00475815807482], [10.29144287109375, 45.00475815807482], [10.30517578125, 44.98528319385123], [10.33538818359375, 44.98333569742887], [10.360107421875, 44.96191323678293], [10.37384033203125, 44.96580822962764], [10.39306640625, 44.98917818669595], [10.40679931640625, 44.98917818669595], [10.42877197265625, 44.96970322247236], [10.43426513671875, 44.93659578329226], [10.491943359375, 44.9346482868699], [10.513916015625, 44.9112783298016], [10.5413818359375, 44.91322582622395], [10.56884765625, 44.90348834411216], [10.59356689453125, 44.905435840534516], [10.6072998046875, 44.92101581191339], [10.634765625, 44.92880579760283], [10.64849853515625, 44.958018243938206], [10.66497802734375, 45.047603079366716], [10.67047119140625, 45.03981309367728], [10.6732177734375, 45.0008631652301], [10.67596435546875, 45.030075611565486], [10.6787109375, 45.008653150919535], [10.689697265625, 45.010600647341896], [10.689697265625, 45.043708086521995], [10.70068359375, 45.0008631652301], [10.70892333984375, 45.05344556863379], [10.733642578125, 45.03981309367728], [10.76385498046875, 45.047603079366716], [10.78582763671875, 45.03981309367728], [10.84075927734375, 45.041760590099635], [10.85174560546875, 45.05539306505615], [10.87646484375, 45.063183050745586], [10.8984375, 45.047603079366716], [10.90667724609375, 45.05149807221143], [10.91217041015625, 45.078763022124456], [10.9259033203125, 45.078763022124456], [10.953369140625, 45.065130547167946], [10.98907470703125, 45.07097303643502], [11.02752685546875, 45.05149807221143], [11.06597900390625, 45.043708086521995], [11.0906982421875, 45.043708086521995], [11.11541748046875, 45.05344556863379], [11.1181640625, 45.065130547167946], [11.12640380859375, 45.06902554001266], [11.13739013671875, 45.05149807221143], [11.151123046875, 45.045655582944356], [11.1676025390625, 45.045655582944356], [11.2005615234375, 45.059288057900865], [11.2115478515625, 45.059288057900865], [11.2335205078125, 45.043708086521995], [11.25, 45.043708086521995], [11.260986328125, 45.05344556863379], [11.260986328125, 45.02033812945369], [11.26922607421875, 45.01839063303133], [11.27471923828125, 45.0339706044102], [11.2774658203125, 45.01644313660897], [11.27197265625, 45.01449564018662], [11.304931640625, 45.012548143764256], [11.3323974609375, 44.98723069027359], [11.3818359375, 44.975545711739436], [11.392822265625, 44.96775572605], [11.39007568359375, 44.956070747515845], [11.3818359375, 44.956070747515845], [11.3818359375, 44.96386073320528], [11.3653564453125, 44.97165071889472], [11.3433837890625, 44.96775572605], [11.3433837890625, 44.98138820100651], [11.3214111328125, 44.98917818669595], [11.30218505859375, 44.993073179540666], [11.29669189453125, 44.98917818669595], [11.30218505859375, 44.98138820100651], [11.29669189453125, 44.98138820100651], [11.282958984375, 44.995020675963026], [11.282958984375, 45.006705654497175], [11.26373291015625, 45.008653150919535], [11.25823974609375, 45.01644313660897], [11.2445068359375, 45.012548143764256], [11.25274658203125, 45.01839063303133], [11.24725341796875, 45.03591810083256], [11.23626708984375, 45.0339706044102], [11.24176025390625, 45.030075611565486], [11.239013671875, 45.02228562587605], [11.2060546875, 45.03202310798784], [11.2060546875, 45.024233122298405], [11.19232177734375, 45.02228562587605], [11.195068359375, 45.012548143764256], [11.1895751953125, 45.00281066165246], [11.17584228515625, 45.0008631652301], [11.173095703125, 45.006705654497175], [11.162109375, 44.98528319385123], [11.15936279296875, 44.991125683118305], [11.14288330078125, 44.98528319385123], [11.14288330078125, 44.977493208161796], [11.14837646484375, 44.977493208161796], [11.14837646484375, 44.98333569742887], [11.1566162109375, 44.97944070458416], [11.14837646484375, 44.97165071889472], [11.162109375, 44.96775572605], [11.151123046875, 44.96191323678293], [11.1566162109375, 44.95022825824877], [11.151123046875, 44.95022825824877], [11.1456298828125, 44.96191323678293], [11.12091064453125, 44.96191323678293], [11.12640380859375, 44.95412325109349], [11.12091064453125, 44.95022825824877], [11.1236572265625, 44.942438272559336], [11.13739013671875, 44.95022825824877], [11.14837646484375, 44.94828076182641], [11.14837646484375, 44.940490776136976], [11.1346435546875, 44.940490776136976], [11.13189697265625, 44.922963308335746], [11.1676025390625, 44.922963308335746], [11.18133544921875, 44.93270079044754], [11.195068359375, 44.93270079044754], [11.1676025390625, 44.9112783298016], [11.15936279296875, 44.91322582622395], [11.15936279296875, 44.905435840534516], [11.1676025390625, 44.907383336956876], [11.1676025390625, 44.9015408476898], [11.173095703125, 44.9015408476898], [11.173095703125, 44.9112783298016], [11.18133544921875, 44.91517332264631], [11.18682861328125, 44.905435840534516], [11.173095703125, 44.89764585484508], [11.17584228515625, 44.889855869155646], [11.2005615234375, 44.89764585484508], [11.195068359375, 44.88596087631093], [11.2115478515625, 44.891803365578006], [11.22802734375, 44.887908372733285], [11.2335205078125, 44.88401337988857], [11.22802734375, 44.87622339419914], [11.24176025390625, 44.872328401354416], [11.2445068359375, 44.854800933553186], [11.25823974609375, 44.85285343713083], [11.25274658203125, 44.84506345144139], [11.260986328125, 44.84116845859668], [11.27197265625, 44.84701094786375], [11.2939453125, 44.84311595501904], [11.28021240234375, 44.872328401354416], [11.3104248046875, 44.88401337988857], [11.3323974609375, 44.88401337988857], [11.33514404296875, 44.87622339419914], [11.39556884765625, 44.872328401354416], [11.40655517578125, 44.88206588346621], [11.3983154296875, 44.89569835842272], [11.40106201171875, 44.907383336956876], [11.4093017578125, 44.89375086200037], [11.414794921875, 44.89569835842272], [11.40655517578125, 44.91712081906867], [11.414794921875, 44.938543279714615], [11.436767578125, 44.887908372733285], [11.4312744140625, 44.8781708906215], [11.40655517578125, 44.874275897776776], [11.40380859375, 44.86259091924262], [11.38458251953125, 44.86259091924262], [11.3763427734375, 44.854800933553186], [11.37359619140625, 44.84311595501904], [11.3873291015625, 44.84701094786375], [11.39007568359375, 44.837273465751956], [11.40380859375, 44.84311595501904], [11.40380859375, 44.83337847290724], [11.39556884765625, 44.83143097648488], [11.39007568359375, 44.82364099079545], [11.414794921875, 44.82364099079545], [11.41204833984375, 44.84116845859668], [11.41754150390625, 44.84116845859668], [11.41754150390625, 44.82753598364016], [11.42852783203125, 44.83143097648488], [11.42852783203125, 44.82364099079545], [11.4422607421875, 44.82364099079545], [11.44775390625, 44.84116845859668], [11.46697998046875, 44.84116845859668], [11.46697998046875, 44.84701094786375], [11.480712890625, 44.85285343713083], [11.50543212890625, 44.84895844428611], [11.50543212890625, 44.8684334085097], [11.49169921875, 44.86453841566498], [11.4971923828125, 44.874275897776776], [11.51092529296875, 44.870380904932055], [11.524658203125, 44.856748429975546], [11.524658203125, 44.84895844428611], [11.54388427734375, 44.854800933553186], [11.5850830078125, 44.84311595501904], [11.590576171875, 44.84311595501904], [11.590576171875, 44.84895844428611], [11.62353515625, 44.84895844428611], [11.63177490234375, 44.83337847290724], [11.65374755859375, 44.821693494373086], [11.6290283203125, 44.821693494373086], [11.62628173828125, 44.81390350868365], [11.61529541015625, 44.82558848721781], [11.60430908203125, 44.80611352299422], [11.59332275390625, 44.802218530149496], [11.5850830078125, 44.80806101941658], [11.5850830078125, 44.81585100510601], [11.59332275390625, 44.81779850152837], [11.59881591796875, 44.83337847290724], [11.57135009765625, 44.84506345144139], [11.5740966796875, 44.8353259693296], [11.5631103515625, 44.83143097648488], [11.5631103515625, 44.819745997950726], [11.5740966796875, 44.81779850152837], [11.57958984375, 44.804166026571856], [11.5850830078125, 44.804166026571856], [11.57958984375, 44.79832353730478], [11.58233642578125, 44.78469106234827], [11.59881591796875, 44.78079606950355], [11.5850830078125, 44.77300608381412], [11.590576171875, 44.73989864463402], [11.58233642578125, 44.73989864463402], [11.58233642578125, 44.74768863032345], [11.5740966796875, 44.74184614105638], [11.57958984375, 44.7262661696775], [11.5740966796875, 44.72431867325515], [11.5740966796875, 44.73016116252222], [11.5631103515625, 44.73405615536694], [11.5521240234375, 44.72431867325515], [11.57684326171875, 44.71652868756571], [11.60430908203125, 44.69121123407505], [11.5521240234375, 44.72237117683279], [11.52740478515625, 44.71652868756571], [11.52740478515625, 44.72821366609986], [11.49993896484375, 44.7262661696775], [11.49993896484375, 44.7360036517893], [11.48895263671875, 44.7360036517893], [11.48895263671875, 44.74184614105638], [11.47796630859375, 44.74574113390109], [11.4697265625, 44.74574113390109], [11.47247314453125, 44.73989864463402], [11.4642333984375, 44.73405615536694], [11.45050048828125, 44.73210865894458], [11.458740234375, 44.71068619829863], [11.4697265625, 44.70679120545392], [11.4642333984375, 44.69705372334212], [11.4752197265625, 44.7028962126092], [11.502685546875, 44.7028962126092], [11.5081787109375, 44.71263369472099], [11.51641845703125, 44.71263369472099], [11.50543212890625, 44.69510622691976], [11.524658203125, 44.69900121976448], [11.5411376953125, 44.69121123407505], [11.51641845703125, 44.683421248385606], [11.524658203125, 44.67757875911853], [11.524658203125, 44.65031380920551], [11.51641845703125, 44.65615629847259], [11.4971923828125, 44.65031380920551], [11.49993896484375, 44.64252382351607], [11.50543212890625, 44.64836631278315], [11.52740478515625, 44.64447131993843], [11.546630859375, 44.65615629847259], [11.5411376953125, 44.64057632709371], [11.52740478515625, 44.64057632709371], [11.53289794921875, 44.62304885929249], [11.52191162109375, 44.62499635571484], [11.5191650390625, 44.61720637002541], [11.53289794921875, 44.61331137718069], [11.5191650390625, 44.60746888791361], [11.5191650390625, 44.59967890222418], [11.53564453125, 44.5938364129571], [11.55487060546875, 44.59578390937946], [11.58782958984375, 44.62110136287013], [11.6015625, 44.62110136287013], [11.60980224609375, 44.63278634140428], [11.62353515625, 44.62889134855956], [11.62353515625, 44.64057632709371], [11.63726806640625, 44.65226130562787], [11.6400146484375, 44.64641881636079], [11.6290283203125, 44.63862883067136], [11.63177490234375, 44.62499635571484], [11.62628173828125, 44.62110136287013], [11.634521484375, 44.62304885929249], [11.64276123046875, 44.61331137718069], [11.63177490234375, 44.60941638433597], [11.63177490234375, 44.60162639864654], [11.62353515625, 44.59578390937946], [11.63726806640625, 44.58799392369003], [11.60980224609375, 44.58409893084531], [11.64276123046875, 44.580203938000594], [11.66748046875, 44.5938364129571], [11.6729736328125, 44.58799392369003], [11.66748046875, 44.57825644157823], [11.69219970703125, 44.57436144873351], [11.7169189453125, 44.580203938000594], [11.7169189453125, 44.57436144873351], [11.69219970703125, 44.56851895946644], [11.6839599609375, 44.54125400955341], [11.678466796875, 44.54125400955341], [11.67022705078125, 44.55683398093228], [11.6510009765625, 44.55099149166521], [11.65374755859375, 44.54320150597577], [11.64276123046875, 44.5276215345969], [11.65374755859375, 44.51983154890747], [11.6839599609375, 44.52177904532982], [11.6839599609375, 44.512041563218034], [11.7059326171875, 44.50814657037331], [11.73065185546875, 44.49256659899444], [11.7388916015625, 44.49646159183916], [11.74713134765625, 44.51788405248511], [11.7608642578125, 44.52177904532982], [11.7608642578125, 44.54320150597577], [11.766357421875, 44.54709649882049], [11.76910400390625, 44.51983154890747], [11.7828369140625, 44.51009406679567], [11.79656982421875, 44.51009406679567], [11.79107666015625, 44.49646159183916], [11.78009033203125, 44.49646159183916], [11.7828369140625, 44.48477661330501], [11.77459716796875, 44.461406656236704], [11.7828369140625, 44.461406656236704], [11.78558349609375, 44.45361667054726], [11.79931640625, 44.461406656236704], [11.80206298828125, 44.45556416696962], [11.832275390625, 44.45751166339198], [11.86248779296875, 44.44972167770255], [11.876220703125, 44.46919664192614], [11.88720703125, 44.47309163477085], [11.88446044921875, 44.49646159183916], [11.88995361328125, 44.48088162046029], [11.898193359375, 44.48088162046029], [11.898193359375, 44.47114413834849], [11.88995361328125, 44.46724914550378], [11.8927001953125, 44.44777418128019], [11.90643310546875, 44.443879188435474], [11.90643310546875, 44.44972167770255], [11.91741943359375, 44.45361667054726], [11.9146728515625, 44.44582668485783], [11.920166015625, 44.44582668485783], [11.92291259765625, 44.45361667054726], [11.942138671875, 44.45361667054726], [11.94488525390625, 44.46530164908142], [11.953125, 44.461406656236704], [11.953125, 44.29976445318092], [9.36309814453125, 44.29976445318092], [9.34661865234375, 44.30950193529271], [9.34661865234375, 44.323134410249224], [9.32464599609375, 44.31534442455979]], [[11.2060546875, 45.03202310798784], [11.20330810546875, 45.0339706044102], [11.20330810546875, 45.03202310798784], [11.2060546875, 45.03202310798784]], [[11.40380859375, 44.8684334085097], [11.40106201171875, 44.870380904932055], [11.40106201171875, 44.8684334085097], [11.40380859375, 44.8684334085097]], [[11.39007568359375, 44.821693494373086], [11.3818359375, 44.82753598364016], [11.37908935546875, 44.819745997950726], [11.39007568359375, 44.821693494373086]], [[11.60980224609375, 44.82558848721781], [11.6015625, 44.82753598364016], [11.6015625, 44.821693494373086], [11.6070556640625, 44.819745997950726], [11.60980224609375, 44.82558848721781]], [[11.4642333984375, 44.73795114821166], [11.46148681640625, 44.74184614105638], [11.46148681640625, 44.73795114821166], [11.4642333984375, 44.73795114821166]], [[11.51641845703125, 44.67563126269617], [11.51092529296875, 44.67757875911853], [11.51092529296875, 44.67368376627382], [11.51641845703125, 44.67563126269617]], [[11.590576171875, 44.61720637002541], [11.5850830078125, 44.61331137718069], [11.590576171875, 44.61136388075833], [11.590576171875, 44.61720637002541]], [[11.6180419921875, 44.62889134855956], [11.61529541015625, 44.62499635571484], [11.6180419921875, 44.62499635571484], [11.6180419921875, 44.62889134855956]], [[11.76910400390625, 44.51983154890747], [11.766357421875, 44.51788405248511], [11.76910400390625, 44.51788405248511], [11.76910400390625, 44.51983154890747]], [[9.34661865234375, 44.323134410249224], [9.3548583984375, 44.33092439593866], [9.34661865234375, 44.33676688520573], [9.34661865234375, 44.323134410249224]], [[11.19232177734375, 45.030075611565486], [11.195068359375, 45.026180618720765], [11.2005615234375, 45.026180618720765], [11.2005615234375, 45.03202310798784], [11.19232177734375, 45.030075611565486]], [[11.1676025390625, 45.01449564018662], [11.18408203125, 45.012548143764256], [11.18408203125, 45.01644313660897], [11.1676025390625, 45.01449564018662]], [[11.14013671875, 44.973598215317075], [11.1346435546875, 44.973598215317075], [11.13189697265625, 44.96970322247236], [11.13739013671875, 44.96970322247236], [11.14013671875, 44.973598215317075]], [[11.10443115234375, 44.95217575467113], [11.1016845703125, 44.95412325109349], [11.1016845703125, 44.95217575467113], [11.10443115234375, 44.95217575467113]], [[11.10992431640625, 44.94633326540406], [11.107177734375, 44.95022825824877], [11.107177734375, 44.94633326540406], [11.10992431640625, 44.94633326540406]], [[11.11541748046875, 44.93659578329226], [11.1126708984375, 44.938543279714615], [11.1126708984375, 44.93659578329226], [11.11541748046875, 44.93659578329226]], [[11.1566162109375, 44.91517332264631], [11.151123046875, 44.9112783298016], [11.1566162109375, 44.9112783298016], [11.1566162109375, 44.91517332264631]], [[11.162109375, 44.89375086200037], [11.15936279296875, 44.89959335126744], [11.15936279296875, 44.89375086200037], [11.162109375, 44.89375086200037]], [[11.42303466796875, 44.891803365578006], [11.4202880859375, 44.89764585484508], [11.4202880859375, 44.891803365578006], [11.42303466796875, 44.891803365578006]], [[11.21429443359375, 44.872328401354416], [11.21978759765625, 44.872328401354416], [11.217041015625, 44.88401337988857], [11.2060546875, 44.88401337988857], [11.21429443359375, 44.88011838704385], [11.21429443359375, 44.872328401354416]], [[11.30218505859375, 44.86453841566498], [11.3214111328125, 44.856748429975546], [11.3323974609375, 44.86259091924262], [11.35162353515625, 44.86064342282027], [11.34613037109375, 44.8684334085097], [11.32415771484375, 44.870380904932055], [11.31866455078125, 44.87622339419914], [11.30218505859375, 44.870380904932055], [11.30218505859375, 44.86453841566498]], [[11.2994384765625, 44.86259091924262], [11.2939453125, 44.86648591208734], [11.2939453125, 44.86259091924262], [11.2994384765625, 44.86259091924262]], [[11.22528076171875, 44.86453841566498], [11.23077392578125, 44.86259091924262], [11.23077392578125, 44.86453841566498], [11.22528076171875, 44.86453841566498]], [[11.29669189453125, 44.86064342282027], [11.30218505859375, 44.854800933553186], [11.30218505859375, 44.86064342282027], [11.29669189453125, 44.86064342282027]], [[11.36810302734375, 44.85285343713083], [11.3653564453125, 44.854800933553186], [11.3653564453125, 44.85285343713083], [11.36810302734375, 44.85285343713083]], [[11.51641845703125, 44.84895844428611], [11.51092529296875, 44.85285343713083], [11.51092529296875, 44.84895844428611], [11.51641845703125, 44.84895844428611]], [[11.36260986328125, 44.84311595501904], [11.35711669921875, 44.84701094786375], [11.35711669921875, 44.84311595501904], [11.36260986328125, 44.84311595501904]], [[11.612548828125, 44.83143097648488], [11.60980224609375, 44.8353259693296], [11.60980224609375, 44.83143097648488], [11.612548828125, 44.83143097648488]], [[11.3983154296875, 44.81585100510601], [11.39556884765625, 44.819745997950726], [11.39556884765625, 44.81585100510601], [11.3983154296875, 44.81585100510601]], [[11.458740234375, 44.79053355161535], [11.4752197265625, 44.77884857308119], [11.480712890625, 44.78858605519299], [11.49444580078125, 44.78274356592591], [11.47796630859375, 44.77105858739176], [11.502685546875, 44.77300608381412], [11.502685546875, 44.76716359454704], [11.47247314453125, 44.75547861601289], [11.49444580078125, 44.74574113390109], [11.52191162109375, 44.74963612674581], [11.513671875, 44.73989864463402], [11.53839111328125, 44.72821366609986], [11.57135009765625, 44.74963612674581], [11.568603515625, 44.77690107665883], [11.55487060546875, 44.77690107665883], [11.546630859375, 44.79053355161535], [11.54937744140625, 44.80027103372714], [11.5191650390625, 44.79832353730478], [11.51092529296875, 44.79248104803771], [11.5191650390625, 44.80806101941658], [11.48895263671875, 44.81390350868365], [11.4862060546875, 44.80611352299422], [11.4752197265625, 44.81000851583894], [11.480712890625, 44.79053355161535], [11.4752197265625, 44.79053355161535], [11.4752197265625, 44.79637604088242], [11.458740234375, 44.79053355161535]], [[11.46697998046875, 44.79637604088242], [11.4642333984375, 44.79832353730478], [11.4642333984375, 44.79637604088242], [11.46697998046875, 44.79637604088242]], [[11.4532470703125, 44.79442854446006], [11.45050048828125, 44.79637604088242], [11.45050048828125, 44.79442854446006], [11.4532470703125, 44.79442854446006]], [[11.4752197265625, 44.69705372334212], [11.46697998046875, 44.67952625554089], [11.48345947265625, 44.67952625554089], [11.4862060546875, 44.67368376627382], [11.49993896484375, 44.69510622691976], [11.4752197265625, 44.69705372334212]], [[11.4422607421875, 44.68147375196325], [11.4422607421875, 44.66394628416202], [11.4532470703125, 44.6600512913173], [11.44775390625, 44.67563126269617], [11.45599365234375, 44.67173626985146], [11.45599365234375, 44.683421248385606], [11.4642333984375, 44.68536874480797], [11.46148681640625, 44.69121123407505], [11.436767578125, 44.69121123407505], [11.4422607421875, 44.68147375196325]], [[11.43402099609375, 44.68147375196325], [11.4312744140625, 44.683421248385606], [11.4312744140625, 44.68147375196325], [11.43402099609375, 44.68147375196325]], [[11.5191650390625, 44.66784127700674], [11.51641845703125, 44.67173626985146], [11.51641845703125, 44.66784127700674], [11.5191650390625, 44.66784127700674]], [[11.4752197265625, 44.6697887734291], [11.46697998046875, 44.6697887734291], [11.46697998046875, 44.66199878773966], [11.4752197265625, 44.66394628416202], [11.4752197265625, 44.6697887734291]], [[11.4752197265625, 44.66394628416202], [11.47796630859375, 44.6600512913173], [11.47796630859375, 44.66394628416202], [11.4752197265625, 44.66394628416202]], [[11.46148681640625, 44.6600512913173], [11.458740234375, 44.66394628416202], [11.458740234375, 44.6600512913173], [11.46148681640625, 44.6600512913173]], [[11.44775390625, 44.65615629847259], [11.44500732421875, 44.65810379489494], [11.44500732421875, 44.65615629847259], [11.44775390625, 44.65615629847259]], [[11.60430908203125, 44.56657146304408], [11.60980224609375, 44.57436144873351], [11.6015625, 44.57241395231115], [11.60430908203125, 44.56657146304408]], [[11.6180419921875, 44.55878147735464], [11.63726806640625, 44.560728973777], [11.634521484375, 44.55488648450993], [11.67572021484375, 44.560728973777], [11.67022705078125, 44.56851895946644], [11.62078857421875, 44.57436144873351], [11.6180419921875, 44.55878147735464]], [[11.8048095703125, 44.44777418128019], [11.79656982421875, 44.45166917412491], [11.79656982421875, 44.44972167770255], [11.8048095703125, 44.44777418128019]], [[11.92291259765625, 44.426351720634244], [11.920166015625, 44.43219420990132], [11.920166015625, 44.426351720634244], [11.92291259765625, 44.426351720634244]], [[11.77734375, 44.426351720634244], [11.78558349609375, 44.42245672778952], [11.78558349609375, 44.43024671347896], [11.77734375, 44.426351720634244]]], [[[11.27197265625, 44.92685830118047], [11.2664794921875, 44.92880579760283], [11.27197265625, 44.92880579760283], [11.27197265625, 44.92685830118047]]], [[[11.217041015625, 44.93270079044754], [11.20330810546875, 44.924910804758106], [11.19781494140625, 44.93075329402518], [11.217041015625, 44.93270079044754]]], [[[11.14837646484375, 44.92880579760283], [11.13739013671875, 44.9346482868699], [11.14837646484375, 44.93659578329226], [11.14837646484375, 44.92880579760283]]], [[[11.2445068359375, 44.94633326540406], [11.260986328125, 44.9346482868699], [11.260986328125, 44.92685830118047], [11.24725341796875, 44.9346482868699], [11.21978759765625, 44.9346482868699], [11.23626708984375, 44.94633326540406], [11.2445068359375, 44.94633326540406]]], [[[11.17034912109375, 44.94633326540406], [11.16485595703125, 44.94828076182641], [11.1676025390625, 44.956070747515845], [11.173095703125, 44.95412325109349], [11.17034912109375, 44.94633326540406]]], [[[11.18133544921875, 44.956070747515845], [11.1785888671875, 44.96191323678293], [11.18133544921875, 44.96191323678293], [11.18133544921875, 44.956070747515845]]], [[[11.23077392578125, 44.96580822962764], [11.22528076171875, 44.96970322247236], [11.23077392578125, 44.96970322247236], [11.23077392578125, 44.96580822962764]]], [[[11.2005615234375, 44.973598215317075], [11.195068359375, 44.96970322247236], [11.195068359375, 44.973598215317075], [11.2005615234375, 44.973598215317075]]], [[[11.1676025390625, 44.96970322247236], [11.16485595703125, 44.973598215317075], [11.1676025390625, 44.973598215317075], [11.1676025390625, 44.96970322247236]]], [[[11.18682861328125, 44.975545711739436], [11.18133544921875, 44.977493208161796], [11.18682861328125, 44.977493208161796], [11.18682861328125, 44.975545711739436]]], [[[11.23626708984375, 44.977493208161796], [11.2335205078125, 44.975545711739436], [11.2335205078125, 44.977493208161796], [11.23626708984375, 44.977493208161796]]], [[[11.20880126953125, 44.98333569742887], [11.20330810546875, 44.98528319385123], [11.20880126953125, 44.98528319385123], [11.20880126953125, 44.98333569742887]]], [[[11.2554931640625, 44.98528319385123], [11.25823974609375, 44.993073179540666], [11.26373291015625, 44.993073179540666], [11.260986328125, 44.98528319385123], [11.2554931640625, 44.98528319385123]]], [[[11.27471923828125, 45.0008631652301], [11.27197265625, 44.99696817238539], [11.27197265625, 45.0008631652301], [11.27471923828125, 45.0008631652301]]], [[[11.20330810546875, 45.0008631652301], [11.20880126953125, 44.99696817238539], [11.20330810546875, 44.99891566880774], [11.20330810546875, 45.0008631652301]]], [[[11.23626708984375, 45.0008631652301], [11.2335205078125, 45.00281066165246], [11.23626708984375, 45.00281066165246], [11.23626708984375, 45.0008631652301]]], [[[11.20880126953125, 45.0008631652301], [11.21429443359375, 45.00475815807482], [11.217041015625, 45.0008631652301], [11.20880126953125, 45.0008631652301]]], [[[11.26373291015625, 45.0008631652301], [11.26922607421875, 45.00475815807482], [11.27197265625, 45.0008631652301], [11.26373291015625, 45.0008631652301]]], [[[11.20330810546875, 45.0008631652301], [11.19232177734375, 45.00475815807482], [11.20330810546875, 45.00475815807482], [11.20330810546875, 45.0008631652301]]], [[[11.24176025390625, 45.008653150919535], [11.239013671875, 45.006705654497175], [11.239013671875, 45.008653150919535], [11.24176025390625, 45.008653150919535]]], [[[11.2005615234375, 45.01644313660897], [11.2060546875, 45.01839063303133], [11.2005615234375, 45.012548143764256], [11.2005615234375, 45.01644313660897]]], [[[11.21978759765625, 45.01839063303133], [11.217041015625, 45.02228562587605], [11.21978759765625, 45.02228562587605], [11.21978759765625, 45.01839063303133]]], [[[11.27471923828125, 45.03981309367728], [11.27197265625, 45.03786559725492], [11.27197265625, 45.03981309367728], [11.27471923828125, 45.03981309367728]]], [[[11.4862060546875, 44.71068619829863], [11.49169921875, 44.70873870187627], [11.4862060546875, 44.70873870187627], [11.4862060546875, 44.71068619829863]]], [[[11.46697998046875, 44.786638558770626], [11.46697998046875, 44.79248104803771], [11.47247314453125, 44.79053355161535], [11.47247314453125, 44.78858605519299], [11.46697998046875, 44.786638558770626]]], [[[11.49444580078125, 44.79832353730478], [11.502685546875, 44.78469106234827], [11.48895263671875, 44.79053355161535], [11.48895263671875, 44.79637604088242], [11.49444580078125, 44.79832353730478]]], [[[11.2774658203125, 44.86453841566498], [11.27471923828125, 44.86648591208734], [11.2774658203125, 44.86648591208734], [11.2774658203125, 44.86453841566498]]], [[[11.4422607421875, 44.874275897776776], [11.48895263671875, 44.85869592639791], [11.44775390625, 44.86259091924262], [11.42852783203125, 44.8684334085097], [11.42852783203125, 44.874275897776776], [11.4422607421875, 44.88011838704385], [11.4422607421875, 44.874275897776776]]], [[[11.45050048828125, 44.88011838704385], [11.45599365234375, 44.887908372733285], [11.45599365234375, 44.88206588346621], [11.45050048828125, 44.88011838704385]]], [[[11.392822265625, 44.89569835842272], [11.3818359375, 44.89959335126744], [11.392822265625, 44.89959335126744], [11.392822265625, 44.89569835842272]]], [[[11.2884521484375, 44.91322582622395], [11.29119873046875, 44.91712081906867], [11.2994384765625, 44.91712081906867], [11.29669189453125, 44.9112783298016], [11.2884521484375, 44.91322582622395]]], [[[11.282958984375, 44.91906831549103], [11.28021240234375, 44.91517332264631], [11.28021240234375, 44.91906831549103], [11.282958984375, 44.91906831549103]]], [[[11.42852783203125, 44.91906831549103], [11.43402099609375, 44.91712081906867], [11.42852783203125, 44.91517332264631], [11.42852783203125, 44.91906831549103]]], [[[11.40106201171875, 44.922963308335746], [11.40106201171875, 44.91712081906867], [11.39556884765625, 44.91712081906867], [11.39556884765625, 44.92101581191339], [11.40106201171875, 44.922963308335746]]], [[[11.28021240234375, 44.92101581191339], [11.2774658203125, 44.91906831549103], [11.2774658203125, 44.92101581191339], [11.28021240234375, 44.92101581191339]]], [[[11.40380859375, 44.924910804758106], [11.40106201171875, 44.92880579760283], [11.40380859375, 44.92880579760283], [11.40380859375, 44.924910804758106]]], [[[11.4422607421875, 44.92685830118047], [11.44500732421875, 44.93075329402518], [11.4532470703125, 44.92880579760283], [11.4532470703125, 44.924910804758106], [11.4422607421875, 44.92685830118047]]], [[[11.39556884765625, 44.93075329402518], [11.40106201171875, 44.93270079044754], [11.40106201171875, 44.92880579760283], [11.39556884765625, 44.93075329402518]]], [[[11.4752197265625, 44.92880579760283], [11.46697998046875, 44.93270079044754], [11.47796630859375, 44.93270079044754], [11.4752197265625, 44.92880579760283]]], [[[11.42303466796875, 44.92880579760283], [11.4312744140625, 44.9346482868699], [11.43402099609375, 44.942438272559336], [11.4312744140625, 44.924910804758106], [11.42303466796875, 44.92880579760283]]], [[[11.34063720703125, 44.942438272559336], [11.337890625, 44.940490776136976], [11.337890625, 44.942438272559336], [11.34063720703125, 44.942438272559336]]], [[[11.4202880859375, 44.938543279714615], [11.41754150390625, 44.95217575467113], [11.4202880859375, 44.95217575467113], [11.4202880859375, 44.938543279714615]]], [[[11.29119873046875, 44.9443857689817], [11.28570556640625, 44.94828076182641], [11.29119873046875, 44.94828076182641], [11.29119873046875, 44.9443857689817]]], [[[11.370849609375, 44.95022825824877], [11.36810302734375, 44.94828076182641], [11.36810302734375, 44.95022825824877], [11.370849609375, 44.95022825824877]]], [[[11.40655517578125, 44.96580822962764], [11.41754150390625, 44.959965740360566], [11.40655517578125, 44.959965740360566], [11.40655517578125, 44.96580822962764]]], [[[11.27471923828125, 44.97165071889472], [11.27197265625, 44.973598215317075], [11.27471923828125, 44.973598215317075], [11.27471923828125, 44.97165071889472]]], [[[11.32415771484375, 44.98138820100651], [11.3214111328125, 44.977493208161796], [11.3214111328125, 44.98138820100651], [11.32415771484375, 44.98138820100651]]], [[[11.304931640625, 44.98333569742887], [11.30218505859375, 44.98723069027359], [11.304931640625, 44.98723069027359], [11.304931640625, 44.98333569742887]]], [[[11.53289794921875, 44.6035738950689], [11.52740478515625, 44.60552139149126], [11.53289794921875, 44.60552139149126], [11.53289794921875, 44.6035738950689]]], [[[11.546630859375, 44.636681334249], [11.5521240234375, 44.636681334249], [11.5521240234375, 44.63278634140428], [11.546630859375, 44.63083884498192], [11.546630859375, 44.636681334249]]], [[[11.546630859375, 44.65810379489494], [11.55487060546875, 44.65615629847259], [11.546630859375, 44.65615629847259], [11.546630859375, 44.65810379489494]]], [[[11.634521484375, 44.66394628416202], [11.6400146484375, 44.66589378058438], [11.6400146484375, 44.66394628416202], [11.634521484375, 44.66394628416202]]], [[[11.60430908203125, 44.68926373765269], [11.62078857421875, 44.67757875911853], [11.612548828125, 44.67173626985146], [11.60430908203125, 44.68926373765269]]], [[[11.5521240234375, 44.68926373765269], [11.55487060546875, 44.69705372334212], [11.56036376953125, 44.69510622691976], [11.5576171875, 44.68926373765269], [11.5521240234375, 44.68926373765269]]], [[[11.51641845703125, 44.71263369472099], [11.524658203125, 44.71847618398807], [11.524658203125, 44.71458119114335], [11.51641845703125, 44.71263369472099]]], [[[11.6400146484375, 44.72821366609986], [11.63177490234375, 44.73016116252222], [11.6290283203125, 44.73795114821166], [11.6400146484375, 44.73405615536694], [11.6400146484375, 44.72821366609986]]], [[[11.64825439453125, 44.7360036517893], [11.6455078125, 44.73795114821166], [11.64825439453125, 44.73795114821166], [11.64825439453125, 44.7360036517893]]], [[[11.6180419921875, 44.73989864463402], [11.62353515625, 44.73795114821166], [11.6180419921875, 44.73795114821166], [11.6180419921875, 44.73989864463402]]], [[[11.6015625, 44.7360036517893], [11.59332275390625, 44.74184614105638], [11.60430908203125, 44.74574113390109], [11.6015625, 44.7360036517893]]], [[[11.60980224609375, 44.73989864463402], [11.6070556640625, 44.74184614105638], [11.60980224609375, 44.74184614105638], [11.60980224609375, 44.73989864463402]]], [[[11.546630859375, 44.78079606950355], [11.53289794921875, 44.77690107665883], [11.52740478515625, 44.78274356592591], [11.546630859375, 44.786638558770626], [11.546630859375, 44.78079606950355]]], [[[11.5191650390625, 44.78274356592591], [11.51641845703125, 44.786638558770626], [11.5191650390625, 44.786638558770626], [11.5191650390625, 44.78274356592591]]], [[[11.5191650390625, 44.79053355161535], [11.524658203125, 44.78858605519299], [11.5191650390625, 44.786638558770626], [11.5191650390625, 44.79053355161535]]], [[[11.53564453125, 44.79442854446006], [11.53289794921875, 44.79637604088242], [11.53564453125, 44.79637604088242], [11.53564453125, 44.79442854446006]]], [[[11.53839111328125, 44.79832353730478], [11.53564453125, 44.79637604088242], [11.53564453125, 44.79832353730478], [11.53839111328125, 44.79832353730478]]], [[[11.59332275390625, 44.854800933553186], [11.58782958984375, 44.86259091924262], [11.590576171875, 44.86259091924262], [11.59332275390625, 44.854800933553186]]], [[[11.62078857421875, 44.88206588346621], [11.61529541015625, 44.88401337988857], [11.62078857421875, 44.88401337988857], [11.62078857421875, 44.88206588346621]]], [[[11.6400146484375, 44.88596087631093], [11.634521484375, 44.887908372733285], [11.6400146484375, 44.887908372733285], [11.6400146484375, 44.88596087631093]]], [[[11.6400146484375, 44.887908372733285], [11.64276123046875, 44.889855869155646], [11.64276123046875, 44.887908372733285], [11.6400146484375, 44.887908372733285]]], [[[11.6455078125, 44.89375086200037], [11.64276123046875, 44.889855869155646], [11.64276123046875, 44.89375086200037], [11.6455078125, 44.89375086200037]]], [[[11.5850830078125, 44.89959335126744], [11.5740966796875, 44.907383336956876], [11.5740966796875, 44.91517332264631], [11.5850830078125, 44.9112783298016], [11.5850830078125, 44.89959335126744]]], [[[11.55487060546875, 44.91906831549103], [11.5411376953125, 44.924910804758106], [11.5411376953125, 44.92880579760283], [11.55487060546875, 44.924910804758106], [11.55487060546875, 44.91906831549103]]], [[[11.52191162109375, 44.93270079044754], [11.5301513671875, 44.92880579760283], [11.52191162109375, 44.93075329402518], [11.52191162109375, 44.93270079044754]]], [[[11.84051513671875, 44.461406656236704], [11.84600830078125, 44.461406656236704], [11.84600830078125, 44.45751166339198], [11.84326171875, 44.45751166339198], [11.84051513671875, 44.461406656236704]]], [[[11.65924072265625, 44.54904399524285], [11.6729736328125, 44.54125400955341], [11.65374755859375, 44.53930651313105], [11.65924072265625, 44.54904399524285]]], [[[11.76910400390625, 44.54709649882049], [11.766357421875, 44.55099149166521], [11.76910400390625, 44.55099149166521], [11.76910400390625, 44.54709649882049]]], [[[11.77734375, 44.55099149166521], [11.77459716796875, 44.55488648450993], [11.78009033203125, 44.55488648450993], [11.77734375, 44.55099149166521]]], [[[11.79107666015625, 44.55293898808757], [11.7828369140625, 44.55683398093228], [11.79107666015625, 44.55683398093228], [11.79107666015625, 44.55293898808757]]], [[[11.722412109375, 44.55878147735464], [11.7169189453125, 44.560728973777], [11.722412109375, 44.560728973777], [11.722412109375, 44.55878147735464]]], [[[11.83502197265625, 44.58215143442295], [11.832275390625, 44.580203938000594], [11.832275390625, 44.58215143442295], [11.83502197265625, 44.58215143442295]]], [[[11.84051513671875, 44.58604642726767], [11.8487548828125, 44.58215143442295], [11.84051513671875, 44.58215143442295], [11.84051513671875, 44.58604642726767]]], [[[11.7828369140625, 44.580203938000594], [11.78558349609375, 44.59188891653474], [11.79107666015625, 44.59188891653474], [11.788330078125, 44.58215143442295], [11.7828369140625, 44.580203938000594]]], [[[11.79931640625, 44.5938364129571], [11.79656982421875, 44.58994142011238], [11.79656982421875, 44.5938364129571], [11.79931640625, 44.5938364129571]]], [[[11.788330078125, 44.59578390937946], [11.79107666015625, 44.59967890222418], [11.7938232421875, 44.59578390937946], [11.788330078125, 44.59578390937946]]], [[[11.67022705078125, 44.62110136287013], [11.66473388671875, 44.62304885929249], [11.67022705078125, 44.62304885929249], [11.67022705078125, 44.62110136287013]]], [[[11.678466796875, 44.63278634140428], [11.6729736328125, 44.63083884498192], [11.6729736328125, 44.63278634140428], [11.678466796875, 44.63278634140428]]], [[[11.72515869140625, 44.63473383782664], [11.722412109375, 44.636681334249], [11.72515869140625, 44.636681334249], [11.72515869140625, 44.63473383782664]]], [[[11.69769287109375, 44.63473383782664], [11.678466796875, 44.64057632709371], [11.700439453125, 44.63862883067136], [11.69769287109375, 44.63473383782664]]], [[[11.678466796875, 44.64252382351607], [11.67572021484375, 44.64057632709371], [11.67572021484375, 44.64252382351607], [11.678466796875, 44.64252382351607]]], [[[11.71417236328125, 44.64057632709371], [11.71142578125, 44.64447131993843], [11.71417236328125, 44.64447131993843], [11.71417236328125, 44.64057632709371]]], [[[11.67572021484375, 44.64252382351607], [11.6729736328125, 44.64447131993843], [11.67572021484375, 44.64447131993843], [11.67572021484375, 44.64252382351607]]], [[[11.6619873046875, 44.65420880205023], [11.67022705078125, 44.636681334249], [11.64276123046875, 44.65420880205023], [11.6400146484375, 44.66394628416202], [11.64825439453125, 44.66589378058438], [11.65374755859375, 44.65420880205023], [11.6619873046875, 44.65420880205023]]], [[[11.7938232421875, 44.65615629847259], [11.79931640625, 44.65420880205023], [11.7938232421875, 44.65420880205023], [11.7938232421875, 44.65615629847259]]], [[[11.6510009765625, 44.66589378058438], [11.64825439453125, 44.66784127700674], [11.6510009765625, 44.66784127700674], [11.6510009765625, 44.66589378058438]]], [[[11.810302734375, 44.977493208161796], [11.8157958984375, 44.975545711739436], [11.810302734375, 44.973598215317075], [11.810302734375, 44.977493208161796]]]]}}, {"type": "Feature", "properties": {"id": 5, "nome": "Selva di Mezzo", "capitale": "Città-rovina della Selva", "animale": "gli Antichi del Bosco", "governo": "nessuno: comanda la foresta", "fazione": "neutrale — rifugio degli esuli", "colore": "#3f7d3f", "area_km2": 8275}, "geometry": {"type": "MultiPolygon", "coordinates": [[[[9.854736328125, 44.02711495405068], [9.8492431640625, 44.02516745762832], [9.8492431640625, 44.029062450473035], [9.854736328125, 44.02711495405068]]], [[[9.82177734375, 44.09332983241088], [9.82452392578125, 44.09527732883324], [9.82452392578125, 44.09332983241088], [9.82177734375, 44.09332983241088]]], [[[9.8272705078125, 44.097224825255594], [9.83001708984375, 44.099172321677955], [9.83001708984375, 44.097224825255594], [9.8272705078125, 44.097224825255594]]], [[[9.81353759765625, 44.101119818100315], [9.8162841796875, 44.103067314522676], [9.8162841796875, 44.101119818100315], [9.81353759765625, 44.101119818100315]]], [[[9.8382568359375, 44.10696230736739], [9.84100341796875, 44.10890980378975], [9.84100341796875, 44.10696230736739], [9.8382568359375, 44.10696230736739]]], [[[9.42352294921875, 44.254972035466665], [9.42626953125, 44.256919531889025], [9.42626953125, 44.254972035466665], [9.42352294921875, 44.254972035466665]]], [[[9.4207763671875, 44.256919531889025], [9.42352294921875, 44.25886702831138], [9.42352294921875, 44.256919531889025], [9.4207763671875, 44.256919531889025]]], [[[9.38507080078125, 44.26665701400081], [9.3878173828125, 44.268604510423174], [9.3878173828125, 44.26665701400081], [9.38507080078125, 44.26665701400081]]], [[[9.3603515625, 44.29976445318092], [9.3603515625, 44.29392196391384], [9.3548583984375, 44.29976445318092], [9.3603515625, 44.29976445318092]]], [[[9.98382568359375, 44.03685243616247], [9.986572265625, 44.03879993258483], [9.986572265625, 44.03685243616247], [9.98382568359375, 44.03685243616247]]], [[[9.98382568359375, 44.048537414696625], [9.986572265625, 44.050484911118986], [9.986572265625, 44.048537414696625], [9.98382568359375, 44.048537414696625]]], [[[9.87945556640625, 44.085539846721446], [9.87396240234375, 44.083592350299085], [9.87396240234375, 44.085539846721446], [9.87945556640625, 44.085539846721446]]], [[[9.9591064453125, 44.08943483956616], [9.96185302734375, 44.09138233598852], [9.96185302734375, 44.08943483956616], [9.9591064453125, 44.08943483956616]]], [[[9.86572265625, 44.08943483956616], [9.85748291015625, 44.09332983241088], [9.85748291015625, 44.097224825255594], [9.86572265625, 44.09527732883324], [9.86572265625, 44.08943483956616]]], [[[9.9481201171875, 44.097224825255594], [9.95086669921875, 44.099172321677955], [9.95086669921875, 44.097224825255594], [9.9481201171875, 44.097224825255594]]], [[[9.854736328125, 44.101119818100315], [9.85748291015625, 44.097224825255594], [9.854736328125, 44.097224825255594], [9.854736328125, 44.101119818100315]]], [[[9.64324951171875, 44.134227257280415], [9.62677001953125, 44.134227257280415], [9.6075439453125, 44.14396473939221], [9.60479736328125, 44.1634397036158], [9.61578369140625, 44.167334696460514], [9.61578369140625, 44.17317718572759], [9.591064453125, 44.169282192882875], [9.58282470703125, 44.184862164261745], [9.57733154296875, 44.17901967499467], [9.56085205078125, 44.17901967499467], [9.5526123046875, 44.200442135640614], [9.525146484375, 44.202389632062975], [9.5196533203125, 44.217969603441844], [9.51141357421875, 44.21212711417477], [9.50592041015625, 44.219917099864205], [9.4976806640625, 44.219917099864205], [9.48944091796875, 44.233549574820714], [9.4647216796875, 44.22575958913128], [9.44549560546875, 44.239392064087795], [9.4317626953125, 44.239392064087795], [9.42626953125, 44.24523455335487], [9.42901611328125, 44.26081452473374], [9.4207763671875, 44.2627620211561], [9.404296875, 44.251077042621944], [9.40155029296875, 44.2627620211561], [9.39605712890625, 44.25886702831138], [9.39056396484375, 44.26470951757846], [9.393310546875, 44.272499503267895], [9.3878173828125, 44.268604510423174], [9.3768310546875, 44.28418448180204], [9.38232421875, 44.290026971069125], [9.36309814453125, 44.29197446749148], [9.371337890625, 44.29392196391384], [9.3658447265625, 44.29976445318092], [11.953125, 44.29976445318092], [11.953125, 43.999850004137656], [10.15411376953125, 43.999850004137656], [10.1458740234375, 44.011534982671805], [10.1019287109375, 44.02321996120596], [10.09368896484375, 44.031009946895395], [10.09368896484375, 44.04269492542955], [10.0579833984375, 44.044642421851904], [10.04974365234375, 44.064117386075495], [10.01678466796875, 44.066064882497855], [10.0030517578125, 44.087487343143806], [9.9810791015625, 44.08943483956616], [9.97283935546875, 44.099172321677955], [9.9755859375, 44.10501481094503], [9.9481201171875, 44.10696230736739], [9.94537353515625, 44.101119818100315], [9.931640625, 44.099172321677955], [9.95635986328125, 44.08943483956616], [9.964599609375, 44.066064882497855], [9.97283935546875, 44.064117386075495], [9.97283935546875, 44.05632740038606], [9.98382568359375, 44.046589918274265], [9.98931884765625, 44.048537414696625], [9.98931884765625, 44.04269492542955], [9.9810791015625, 44.03879993258483], [9.9810791015625, 44.032957443317756], [9.94537353515625, 44.03685243616247], [9.92889404296875, 44.0543799039637], [9.91241455078125, 44.05827489680842], [9.90966796875, 44.062169889653134], [9.91241455078125, 44.069959875342576], [9.90692138671875, 44.068012378920216], [9.898681640625, 44.081644853876725], [9.88494873046875, 44.081644853876725], [9.88494873046875, 44.085539846721446], [9.87945556640625, 44.085539846721446], [9.876708984375, 44.09138233598852], [9.87396240234375, 44.085539846721446], [9.86846923828125, 44.087487343143806], [9.8712158203125, 44.09138233598852], [9.8602294921875, 44.101119818100315], [9.8602294921875, 44.11085730021211], [9.8712158203125, 44.11085730021211], [9.8712158203125, 44.116699789479185], [9.85748291015625, 44.114752293056824], [9.8492431640625, 44.120594782323906], [9.83551025390625, 44.116699789479185], [9.8272705078125, 44.10501481094503], [9.8162841796875, 44.10501481094503], [9.81353759765625, 44.11085730021211], [9.80804443359375, 44.101119818100315], [9.810791015625, 44.099172321677955], [9.81903076171875, 44.101119818100315], [9.8162841796875, 44.09138233598852], [9.82452392578125, 44.09138233598852], [9.82177734375, 44.083592350299085], [9.832763671875, 44.081644853876725], [9.83001708984375, 44.07385486818729], [9.84375, 44.07580236460965], [9.84100341796875, 44.069959875342576], [9.85198974609375, 44.068012378920216], [9.84375, 44.064117386075495], [9.8602294921875, 44.06022239323078], [9.8602294921875, 44.04074742900719], [9.84375, 44.032957443317756], [9.83001708984375, 44.04074742900719], [9.82452392578125, 44.050484911118986], [9.76409912109375, 44.07190737176493], [9.755859375, 44.085539846721446], [9.7393798828125, 44.09138233598852], [9.7393798828125, 44.099172321677955], [9.73663330078125, 44.09332983241088], [9.72564697265625, 44.097224825255594], [9.72015380859375, 44.11085730021211], [9.7064208984375, 44.116699789479185], [9.7064208984375, 44.120594782323906], [9.69818115234375, 44.118647285901545], [9.65423583984375, 44.14201724296985], [9.64324951171875, 44.134227257280415]], [[9.92889404296875, 44.0543799039637], [9.931640625, 44.05632740038606], [9.92889404296875, 44.05632740038606], [9.92889404296875, 44.0543799039637]], [[9.91241455078125, 44.066064882497855], [9.9151611328125, 44.064117386075495], [9.9151611328125, 44.066064882497855], [9.91241455078125, 44.066064882497855]], [[9.90692138671875, 44.07385486818729], [9.90966796875, 44.081644853876725], [9.90692138671875, 44.081644853876725], [9.90692138671875, 44.07385486818729]], [[9.90692138671875, 44.081644853876725], [9.9041748046875, 44.083592350299085], [9.9041748046875, 44.081644853876725], [9.90692138671875, 44.081644853876725]], [[9.832763671875, 44.12254227874626], [9.84375, 44.120594782323906], [9.84375, 44.12254227874626], [9.832763671875, 44.12254227874626]], [[9.854736328125, 44.03879993258483], [9.85198974609375, 44.04074742900719], [9.85198974609375, 44.03879993258483], [9.854736328125, 44.03879993258483]], [[9.79156494140625, 44.066064882497855], [9.7943115234375, 44.068012378920216], [9.79156494140625, 44.068012378920216], [9.79156494140625, 44.066064882497855]], [[9.7833251953125, 44.069959875342576], [9.78057861328125, 44.07580236460965], [9.77783203125, 44.07580236460965], [9.77783203125, 44.069959875342576], [9.7833251953125, 44.069959875342576]], [[9.7119140625, 44.116699789479185], [9.7174072265625, 44.118647285901545], [9.7119140625, 44.118647285901545], [9.7119140625, 44.116699789479185]], [[9.65423583984375, 44.14201724296985], [9.656982421875, 44.14396473939221], [9.65423583984375, 44.14396473939221], [9.65423583984375, 44.14201724296985]], [[9.64874267578125, 44.14201724296985], [9.64324951171875, 44.14396473939221], [9.64324951171875, 44.14201724296985], [9.64874267578125, 44.14201724296985]], [[9.3878173828125, 44.28223698537969], [9.40155029296875, 44.270552006845534], [9.4207763671875, 44.270552006845534], [9.3878173828125, 44.28223698537969]], [[9.39605712890625, 44.26665701400081], [9.3988037109375, 44.26470951757846], [9.3988037109375, 44.26665701400081], [9.39605712890625, 44.26665701400081]], [[9.4317626953125, 44.253024539044304], [9.43450927734375, 44.251077042621944], [9.43450927734375, 44.253024539044304], [9.4317626953125, 44.253024539044304]], [[9.437255859375, 44.24523455335487], [9.44000244140625, 44.24133956051015], [9.44000244140625, 44.24523455335487], [9.437255859375, 44.24523455335487]], [[9.4866943359375, 44.239392064087795], [9.48394775390625, 44.24133956051015], [9.48394775390625, 44.239392064087795], [9.4866943359375, 44.239392064087795]], [[9.48394775390625, 44.239392064087795], [9.481201171875, 44.237444567665435], [9.48394775390625, 44.237444567665435], [9.48394775390625, 44.239392064087795]], [[9.4866943359375, 44.239392064087795], [9.48944091796875, 44.237444567665435], [9.48944091796875, 44.239392064087795], [9.4866943359375, 44.239392064087795]], [[9.49493408203125, 44.237444567665435], [9.4921875, 44.235497071243074], [9.49493408203125, 44.233549574820714], [9.49493408203125, 44.237444567665435]], [[9.49493408203125, 44.233549574820714], [9.4976806640625, 44.229654581976], [9.4976806640625, 44.233549574820714], [9.49493408203125, 44.233549574820714]], [[9.46746826171875, 44.233549574820714], [9.46197509765625, 44.235497071243074], [9.46197509765625, 44.233549574820714], [9.46746826171875, 44.233549574820714]], [[9.46746826171875, 44.233549574820714], [9.47021484375, 44.23160207839836], [9.47021484375, 44.233549574820714], [9.46746826171875, 44.233549574820714]], [[9.4757080078125, 44.235497071243074], [9.47845458984375, 44.233549574820714], [9.47845458984375, 44.235497071243074], [9.4757080078125, 44.235497071243074]], [[9.50042724609375, 44.22381209270892], [9.503173828125, 44.221864596286565], [9.503173828125, 44.22381209270892], [9.50042724609375, 44.22381209270892]], [[9.52789306640625, 44.206284624907696], [9.53338623046875, 44.204337128485335], [9.53338623046875, 44.206284624907696], [9.52789306640625, 44.206284624907696]], [[9.54437255859375, 44.206284624907696], [9.54986572265625, 44.204337128485335], [9.54986572265625, 44.206284624907696], [9.54437255859375, 44.206284624907696]], [[9.5526123046875, 44.204337128485335], [9.55535888671875, 44.202389632062975], [9.55535888671875, 44.204337128485335], [9.5526123046875, 44.204337128485335]], [[9.56085205078125, 44.1965471427959], [9.55810546875, 44.198494639218254], [9.55810546875, 44.1965471427959], [9.56085205078125, 44.1965471427959]], [[9.56085205078125, 44.1965471427959], [9.5635986328125, 44.19459964637354], [9.5635986328125, 44.1965471427959], [9.56085205078125, 44.1965471427959]], [[9.5635986328125, 44.19459964637354], [9.56634521484375, 44.19265214995118], [9.56634521484375, 44.19459964637354], [9.5635986328125, 44.19459964637354]], [[9.56634521484375, 44.19265214995118], [9.569091796875, 44.186809660684105], [9.569091796875, 44.19265214995118], [9.56634521484375, 44.19265214995118]], [[9.61578369140625, 44.17707217857231], [9.6185302734375, 44.17512468214995], [9.6185302734375, 44.17707217857231], [9.61578369140625, 44.17707217857231]], [[9.61029052734375, 44.155649717926366], [9.613037109375, 44.153702221504005], [9.613037109375, 44.155649717926366], [9.61029052734375, 44.155649717926366]], [[9.62127685546875, 44.14591223581457], [9.61578369140625, 44.151754725081645], [9.61578369140625, 44.14591223581457], [9.62127685546875, 44.14591223581457]], [[9.89593505859375, 44.147859732236924], [9.898681640625, 44.14396473939221], [9.898681640625, 44.147859732236924], [9.89593505859375, 44.147859732236924]], [[9.6240234375, 44.14201724296985], [9.62127685546875, 44.14396473939221], [9.62127685546875, 44.14201724296985], [9.6240234375, 44.14201724296985]], [[9.6240234375, 44.14201724296985], [9.62677001953125, 44.138122250125136], [9.62677001953125, 44.14201724296985], [9.6240234375, 44.14201724296985]], [[9.66796875, 44.14396473939221], [9.65972900390625, 44.14396473939221], [9.65972900390625, 44.14201724296985], [9.66796875, 44.138122250125136], [9.66796875, 44.14396473939221]], [[9.90142822265625, 44.14201724296985], [9.9041748046875, 44.14006974654749], [9.9041748046875, 44.14201724296985], [9.90142822265625, 44.14201724296985]], [[9.678955078125, 44.136174753702775], [9.6844482421875, 44.134227257280415], [9.6844482421875, 44.136174753702775], [9.678955078125, 44.136174753702775]], [[9.90692138671875, 44.136174753702775], [9.91241455078125, 44.12838476801334], [9.91241455078125, 44.136174753702775], [9.90692138671875, 44.136174753702775]], [[9.91241455078125, 44.120594782323906], [9.91790771484375, 44.120594782323906], [9.9151611328125, 44.12838476801334], [9.91241455078125, 44.12838476801334], [9.91241455078125, 44.120594782323906]], [[9.920654296875, 44.130332264435694], [9.91790771484375, 44.134227257280415], [9.91790771484375, 44.130332264435694], [9.920654296875, 44.130332264435694]], [[9.920654296875, 44.12643727159098], [9.931640625, 44.118647285901545], [9.91790771484375, 44.11085730021211], [9.92889404296875, 44.114752293056824], [9.942626953125, 44.10501481094503], [9.9371337890625, 44.12254227874626], [9.92340087890625, 44.130332264435694], [9.920654296875, 44.12643727159098]], [[9.72015380859375, 44.116699789479185], [9.722900390625, 44.114752293056824], [9.722900390625, 44.116699789479185], [9.72015380859375, 44.116699789479185]], [[9.72564697265625, 44.10890980378975], [9.7283935546875, 44.10501481094503], [9.7283935546875, 44.10890980378975], [9.72564697265625, 44.10890980378975]], [[9.7283935546875, 44.103067314522676], [9.73388671875, 44.101119818100315], [9.73388671875, 44.103067314522676], [9.7283935546875, 44.103067314522676]], [[9.75311279296875, 44.09138233598852], [9.75860595703125, 44.08943483956616], [9.75860595703125, 44.09138233598852], [9.75311279296875, 44.09138233598852]], [[9.7613525390625, 44.085539846721446], [9.76409912109375, 44.081644853876725], [9.76409912109375, 44.085539846721446], [9.7613525390625, 44.085539846721446]], [[9.91790771484375, 44.064117386075495], [9.92340087890625, 44.06022239323078], [9.92340087890625, 44.066064882497855], [9.91790771484375, 44.064117386075495]], [[9.79705810546875, 44.064117386075495], [9.80255126953125, 44.062169889653134], [9.80255126953125, 44.064117386075495], [9.79705810546875, 44.064117386075495]], [[9.82177734375, 44.05632740038606], [9.82452392578125, 44.0543799039637], [9.82452392578125, 44.05632740038606], [9.82177734375, 44.05632740038606]], [[9.84100341796875, 44.050484911118986], [9.8382568359375, 44.05632740038606], [9.83551025390625, 44.050484911118986], [9.84100341796875, 44.050484911118986]], [[9.84649658203125, 44.05632740038606], [9.8492431640625, 44.0543799039637], [9.8492431640625, 44.05632740038606], [9.84649658203125, 44.05632740038606]], [[9.83001708984375, 44.050484911118986], [9.8272705078125, 44.052432407541346], [9.8272705078125, 44.050484911118986], [9.83001708984375, 44.050484911118986]], [[9.83001708984375, 44.050484911118986], [9.832763671875, 44.048537414696625], [9.832763671875, 44.050484911118986], [9.83001708984375, 44.050484911118986]], [[9.832763671875, 44.048537414696625], [9.83551025390625, 44.04269492542955], [9.83551025390625, 44.048537414696625], [9.832763671875, 44.048537414696625]], [[9.85748291015625, 44.050484911118986], [9.85198974609375, 44.050484911118986], [9.854736328125, 44.04269492542955], [9.85748291015625, 44.04269492542955], [9.85748291015625, 44.050484911118986]], [[9.94537353515625, 44.048537414696625], [9.9481201171875, 44.046589918274265], [9.9481201171875, 44.048537414696625], [9.94537353515625, 44.048537414696625]], [[9.95086669921875, 44.044642421851904], [9.95361328125, 44.04269492542955], [9.95361328125, 44.044642421851904], [9.95086669921875, 44.044642421851904]]]]}}, {"type": "Feature", "properties": {"id": 6, "nome": "Terre del Leone di Pietra", "capitale": "Leonalba", "animale": "il Leone di Pietra (il Leone)", "governo": "Repubblica", "fazione": "turchino (con rivali vermigli)", "colore": "#7d8a3a", "area_km2": 17144}, "geometry": {"type": "MultiPolygon", "coordinates": [[[[9.84100341796875, 43.07673669993956], [9.84375, 43.068946714250124], [9.80804443359375, 43.068946714250124], [9.8162841796875, 43.08063169278428], [9.84100341796875, 43.07673669993956]]], [[[9.90966796875, 43.44286602734302], [9.91241455078125, 43.43312854523123], [9.90692138671875, 43.42728605596415], [9.91241455078125, 43.42339106311944], [9.89593505859375, 43.41949607027472], [9.90142822265625, 43.41560107743], [9.8876953125, 43.41949607027472], [9.8822021484375, 43.44286602734302], [9.90966796875, 43.44286602734302]]], [[[10.29693603515625, 43.60061323755409], [10.29693603515625, 43.60840322324353], [10.30517578125, 43.60840322324353], [10.30517578125, 43.59866574113173], [10.29693603515625, 43.60061323755409]]], [[[10.30517578125, 43.620088201777676], [10.294189453125, 43.61619320893296], [10.294189453125, 43.62787818746712], [10.30242919921875, 43.62787818746712], [10.30517578125, 43.620088201777676]]], [[[10.39306640625, 43.62982568388947], [10.39581298828125, 43.62787818746712], [10.39306640625, 43.62787818746712], [10.39306640625, 43.62982568388947]]], [[[10.34088134765625, 43.67656559802609], [10.35186767578125, 43.637615669578906], [10.34637451171875, 43.60450823039881], [10.34088134765625, 43.60450823039881], [10.338134765625, 43.61619320893296], [10.32989501953125, 43.60061323755409], [10.3216552734375, 43.59866574113173], [10.3106689453125, 43.62787818746712], [10.30792236328125, 43.6570906338025], [10.33538818359375, 43.67656559802609], [10.34088134765625, 43.67656559802609]], [[10.32989501953125, 43.63566817315655], [10.33538818359375, 43.63372067673419], [10.33538818359375, 43.63566817315655], [10.32989501953125, 43.63566817315655]]], [[[10.2777099609375, 43.67461810160373], [10.2996826171875, 43.64345815884599], [10.2996826171875, 43.63566817315655], [10.28594970703125, 43.64930064811306], [10.2777099609375, 43.67461810160373]]], [[[10.3656005859375, 43.66877561233665], [10.36834716796875, 43.66488061949193], [10.3656005859375, 43.66488061949193], [10.3656005859375, 43.66877561233665]]], [[[10.34637451171875, 43.705778044361466], [10.34088134765625, 43.71941051931798], [10.34637451171875, 43.71941051931798], [10.34637451171875, 43.705778044361466]]], [[[10.2886962890625, 43.76809792987695], [10.294189453125, 43.75057046207572], [10.316162109375, 43.74472797280865], [10.31341552734375, 43.72720050500742], [10.3326416015625, 43.73499049069685], [10.3436279296875, 43.69798805867203], [10.32440185546875, 43.69993555509439], [10.31890869140625, 43.69798805867203], [10.31890869140625, 43.68435558371552], [10.31341552734375, 43.68435558371552], [10.31341552734375, 43.69214556940496], [10.30242919921875, 43.68435558371552], [10.30792236328125, 43.705778044361466], [10.294189453125, 43.70772554078383], [10.294189453125, 43.71941051931798], [10.28045654296875, 43.72720050500742], [10.27496337890625, 43.77199292272167], [10.2886962890625, 43.76809792987695]]], [[[10.34637451171875, 43.738885483541566], [10.3326416015625, 43.73499049069685], [10.3326416015625, 43.74278047638629], [10.34637451171875, 43.74667546923101], [10.34637451171875, 43.738885483541566]]], [[[10.2557373046875, 43.86352525457254], [10.272216796875, 43.83041781539244], [10.272216796875, 43.81678534043592], [10.29693603515625, 43.824575326125355], [10.29693603515625, 43.81483784401357], [10.30242919921875, 43.81289034759121], [10.30242919921875, 43.824575326125355], [10.3106689453125, 43.826522822547716], [10.31890869140625, 43.773940419144026], [10.32440185546875, 43.77004542629931], [10.30242919921875, 43.76809792987695], [10.2886962890625, 43.775887915566386], [10.294189453125, 43.78367790125582], [10.283203125, 43.808995354746486], [10.2777099609375, 43.80315286547941], [10.2886962890625, 43.78173040483346], [10.27496337890625, 43.78173040483346], [10.250244140625, 43.86352525457254], [10.2557373046875, 43.86352525457254]], [[10.29693603515625, 43.79731037621234], [10.30242919921875, 43.79731037621234], [10.30242919921875, 43.80120536905705], [10.29693603515625, 43.80315286547941], [10.29693603515625, 43.79731037621234]], [[10.30517578125, 43.77978290841111], [10.30792236328125, 43.775887915566386], [10.30792236328125, 43.77978290841111], [10.30517578125, 43.77978290841111]]], [[[10.24749755859375, 43.845997786771306], [10.250244140625, 43.844050290348946], [10.24749755859375, 43.844050290348946], [10.24749755859375, 43.845997786771306]]], [[[10.2337646484375, 43.88105272237377], [10.23651123046875, 43.879105225951406], [10.2337646484375, 43.879105225951406], [10.2337646484375, 43.88105272237377]]], [[[10.20904541015625, 43.92389764366566], [10.2117919921875, 43.91805515439858], [10.20904541015625, 43.91805515439858], [10.20904541015625, 43.92389764366566]]], [[[10.1953125, 43.93753011862217], [10.18707275390625, 43.93947761504453], [10.184326171875, 43.95116259357869], [10.1953125, 43.95116259357869], [10.1953125, 43.93753011862217]]], [[[10.1788330078125, 43.99011252202586], [10.17333984375, 43.9881650256035], [10.17333984375, 43.99011252202586], [10.1788330078125, 43.99011252202586]]], [[[10.53863525390625, 43.1176341248091], [10.5413818359375, 43.11373913196438], [10.53863525390625, 43.11373913196438], [10.53863525390625, 43.1176341248091]]], [[[10.535888671875, 43.205271463815244], [10.53863525390625, 43.19553398170345], [10.535888671875, 43.19553398170345], [10.535888671875, 43.205271463815244]]], [[[10.5523681640625, 43.209166456659965], [10.557861328125, 43.2169564423494], [10.5633544921875, 43.21500894592704], [10.5633544921875, 43.209166456659965], [10.5523681640625, 43.209166456659965]]], [[[10.53314208984375, 43.22864142088355], [10.535888671875, 43.21306144950468], [10.5303955078125, 43.22864142088355], [10.53314208984375, 43.22864142088355]]], [[[10.51116943359375, 43.28901380997667], [10.51666259765625, 43.27148634217544], [10.52490234375, 43.26564385290837], [10.52764892578125, 43.2500638815295], [10.5194091796875, 43.25590637079657], [10.5029296875, 43.294856299243754], [10.51116943359375, 43.28901380997667]]], [[[10.48095703125, 43.31433126346734], [10.47271728515625, 43.312383767044984], [10.47271728515625, 43.3162787598897], [10.48095703125, 43.31433126346734]]], [[[10.26123046875, 43.93558262219981], [10.23651123046875, 43.943372607889245], [10.24200439453125, 43.949215097156326], [10.2337646484375, 43.9550575864234], [10.22552490234375, 43.95311009000104], [10.2227783203125, 43.960900075690475], [10.1898193359375, 43.97258505422463], [10.1898193359375, 43.980375039914065], [10.18157958984375, 43.984270032758786], [10.1898193359375, 43.9881650256035], [10.17333984375, 43.999850004137656], [11.953125, 43.999850004137656], [11.953125, 43.068946714250124], [10.535888671875, 43.068946714250124], [10.535888671875, 43.08257918920664], [10.5413818359375, 43.086474182051354], [10.53863525390625, 43.10984413911966], [10.54412841796875, 43.11179163554202], [10.53863525390625, 43.193586485281095], [10.55511474609375, 43.174111521057505], [10.557861328125, 43.18190150674694], [10.57159423828125, 43.187743996014014], [10.57708740234375, 43.20332396739288], [10.5633544921875, 43.205271463815244], [10.56610107421875, 43.21500894592704], [10.56060791015625, 43.240326399417704], [10.5523681640625, 43.242273895840064], [10.54962158203125, 43.2500638815295], [10.55511474609375, 43.26369635648601], [10.5413818359375, 43.26759134933073], [10.54412841796875, 43.27927632786488], [10.51116943359375, 43.312383767044984], [10.54962158203125, 43.33185873126857], [10.51666259765625, 43.33185873126857], [10.5029296875, 43.326016242001494], [10.50567626953125, 43.33380622769093], [10.47821044921875, 43.343543709802724], [10.469970703125, 43.36496617044867], [10.458984375, 43.36886116329339], [10.47821044921875, 43.38638863109462], [10.45074462890625, 43.378598645405184], [10.4315185546875, 43.39028362393933], [10.426025390625, 43.40196860247349], [10.404052734375, 43.40196860247349], [10.3985595703125, 43.41170608458528], [10.40130615234375, 43.42533855954179], [10.3875732421875, 43.43312854523123], [10.382080078125, 43.45065601303246], [10.3546142578125, 43.46428848798897], [10.34088134765625, 43.46428848798897], [10.338134765625, 43.47207847367841], [10.32989501953125, 43.47402597010077], [10.3326416015625, 43.48571094863492], [10.31890869140625, 43.50323841643615], [10.32440185546875, 43.5149233949703], [10.31890869140625, 43.5149233949703], [10.316162109375, 43.52660837350445], [10.30242919921875, 43.54024084846097], [10.30792236328125, 43.54413584130568], [10.30517578125, 43.55582081983984], [10.316162109375, 43.55582081983984], [10.3216552734375, 43.56750579837399], [10.33538818359375, 43.57334828764107], [10.35186767578125, 43.56945329479635], [10.360107421875, 43.57529578406343], [10.34912109375, 43.57919077690814], [10.3546142578125, 43.5908757554423], [10.36834716796875, 43.58503326617522], [10.37384033203125, 43.59282325186466], [10.39306640625, 43.58892825901994], [10.404052734375, 43.59477074828701], [10.41229248046875, 43.58698076259758], [10.41229248046875, 43.59671824470937], [10.43426513671875, 43.5908757554423], [10.4425048828125, 43.60061323755409], [10.4534912109375, 43.59477074828701], [10.4534912109375, 43.60450823039881], [10.46722412109375, 43.60061323755409], [10.4644775390625, 43.61229821608824], [10.4754638671875, 43.60645572682117], [10.47821044921875, 43.61619320893296], [10.48370361328125, 43.60450823039881], [10.5029296875, 43.60840322324353], [10.513916015625, 43.620088201777676], [10.52215576171875, 43.61814070535532], [10.52490234375, 43.62593069104476], [10.56610107421875, 43.62593069104476], [10.56884765625, 43.63372067673419], [10.557861328125, 43.637615669578906], [10.57159423828125, 43.64151066242363], [10.57708740234375, 43.66293312306957], [10.56884765625, 43.67267060518137], [10.52490234375, 43.6804605908708], [10.53314208984375, 43.688250576560236], [10.50567626953125, 43.69993555509439], [10.5029296875, 43.71162053362855], [10.51116943359375, 43.71162053362855], [10.51116943359375, 43.71746302289562], [10.5029296875, 43.71746302289562], [10.50567626953125, 43.723305512162696], [10.4864501953125, 43.72720050500742], [10.4864501953125, 43.73304299427449], [10.469970703125, 43.740832979963926], [10.46173095703125, 43.758360447765156], [10.458984375, 43.75251795849808], [10.4425048828125, 43.75446545492044], [10.43426513671875, 43.775887915566386], [10.426025390625, 43.773940419144026], [10.4205322265625, 43.78367790125582], [10.4205322265625, 43.807047858324125], [10.4095458984375, 43.81289034759121], [10.40679931640625, 43.80315286547941], [10.39581298828125, 43.807047858324125], [10.39581298828125, 43.80120536905705], [10.404052734375, 43.80120536905705], [10.404052734375, 43.78173040483346], [10.382080078125, 43.78562539767818], [10.38482666015625, 43.793415383367616], [10.37109375, 43.80120536905705], [10.3765869140625, 43.81483784401357], [10.36285400390625, 43.83626030465951], [10.3546142578125, 43.83820780108187], [10.3546142578125, 43.84794528319367], [10.36285400390625, 43.84989277961602], [10.35736083984375, 43.861577758150176], [10.34637451171875, 43.859630261727816], [10.3271484375, 43.88105272237377], [10.2996826171875, 43.88494771521848], [10.30517578125, 43.892737700907915], [10.31890869140625, 43.892737700907915], [10.3216552734375, 43.898580190175], [10.2886962890625, 43.894685197330276], [10.26947021484375, 43.92389764366566], [10.26123046875, 43.92389764366566], [10.26123046875, 43.93558262219981]], [[10.557861328125, 43.33185873126857], [10.557861328125, 43.33770122053565], [10.54962158203125, 43.33380622769093], [10.54962158203125, 43.33185873126857], [10.557861328125, 43.33185873126857]], [[10.35186767578125, 43.56945329479635], [10.3546142578125, 43.56750579837399], [10.3546142578125, 43.56945329479635], [10.35186767578125, 43.56945329479635]], [[10.4534912109375, 43.59477074828701], [10.45623779296875, 43.5908757554423], [10.45623779296875, 43.59477074828701], [10.4534912109375, 43.59477074828701]], [[10.26947021484375, 43.929740132932736], [10.272216796875, 43.927792636510375], [10.27496337890625, 43.929740132932736], [10.26947021484375, 43.929740132932736]], [[10.42877197265625, 43.84794528319367], [10.4315185546875, 43.844050290348946], [10.4315185546875, 43.84794528319367], [10.42877197265625, 43.84794528319367]], [[10.41778564453125, 43.842102793926585], [10.4205322265625, 43.84015529750423], [10.4205322265625, 43.842102793926585], [10.41778564453125, 43.842102793926585]], [[10.4095458984375, 43.8323653118148], [10.4095458984375, 43.83820780108187], [10.404052734375, 43.83820780108187], [10.4095458984375, 43.8323653118148]], [[10.4644775390625, 43.83431280823715], [10.45623779296875, 43.83820780108187], [10.4534912109375, 43.83431280823715], [10.4644775390625, 43.83431280823715]], [[10.41778564453125, 43.822627829703], [10.41229248046875, 43.83041781539244], [10.41229248046875, 43.822627829703], [10.41778564453125, 43.822627829703]], [[10.57708740234375, 43.81873283685828], [10.5853271484375, 43.824575326125355], [10.56610107421875, 43.824575326125355], [10.57708740234375, 43.81873283685828]], [[10.601806640625, 43.808995354746486], [10.58258056640625, 43.807047858324125], [10.601806640625, 43.80120536905705], [10.59356689453125, 43.791467886945256], [10.59906005859375, 43.793415383367616], [10.60455322265625, 43.78173040483346], [10.6292724609375, 43.77199292272167], [10.62103271484375, 43.76420293703224], [10.62103271484375, 43.74667546923101], [10.6292724609375, 43.73304299427449], [10.62652587890625, 43.72720050500742], [10.63751220703125, 43.723305512162696], [10.63201904296875, 43.72914800142978], [10.634765625, 43.73304299427449], [10.645751953125, 43.72525300858506], [10.63751220703125, 43.70967303720619], [10.6402587890625, 43.70383054793911], [10.67047119140625, 43.74862296565336], [10.6842041015625, 43.75251795849808], [10.689697265625, 43.76030794418752], [10.6622314453125, 43.75057046207572], [10.65399169921875, 43.77199292272167], [10.65399169921875, 43.793415383367616], [10.66497802734375, 43.807047858324125], [10.65399169921875, 43.807047858324125], [10.6402587890625, 43.822627829703], [10.62652587890625, 43.810942851168846], [10.6182861328125, 43.81483784401357], [10.6182861328125, 43.807047858324125], [10.60455322265625, 43.81289034759121], [10.59906005859375, 43.822627829703], [10.601806640625, 43.808995354746486]], [[10.59356689453125, 43.81289034759121], [10.58807373046875, 43.81678534043592], [10.58807373046875, 43.81483784401357], [10.59356689453125, 43.81289034759121]], [[10.404052734375, 43.810942851168846], [10.40130615234375, 43.81483784401357], [10.3985595703125, 43.810942851168846], [10.404052734375, 43.810942851168846]], [[10.513916015625, 43.81483784401357], [10.51666259765625, 43.81289034759121], [10.51666259765625, 43.81483784401357], [10.513916015625, 43.81483784401357]], [[10.52764892578125, 43.810942851168846], [10.52215576171875, 43.81483784401357], [10.52215576171875, 43.81289034759121], [10.52764892578125, 43.810942851168846]], [[10.546875, 43.81483784401357], [10.5523681640625, 43.810942851168846], [10.5523681640625, 43.81483784401357], [10.546875, 43.81483784401357]], [[10.53314208984375, 43.810942851168846], [10.53863525390625, 43.807047858324125], [10.53863525390625, 43.810942851168846], [10.53314208984375, 43.810942851168846]], [[10.6951904296875, 43.76420293703224], [10.69793701171875, 43.76225544060988], [10.69793701171875, 43.76420293703224], [10.6951904296875, 43.76420293703224]], [[10.7501220703125, 43.73304299427449], [10.75286865234375, 43.73109549785213], [10.75286865234375, 43.73304299427449], [10.7501220703125, 43.73304299427449]], [[10.73089599609375, 43.723305512162696], [10.73638916015625, 43.721358015740336], [10.73638916015625, 43.723305512162696], [10.73089599609375, 43.723305512162696]], [[10.6072998046875, 43.71551552647326], [10.59906005859375, 43.71941051931798], [10.5963134765625, 43.71551552647326], [10.6072998046875, 43.71551552647326]], [[10.61004638671875, 43.71941051931798], [10.61279296875, 43.71746302289562], [10.61279296875, 43.71941051931798], [10.61004638671875, 43.71941051931798]], [[10.71990966796875, 43.71941051931798], [10.72540283203125, 43.71746302289562], [10.72540283203125, 43.71941051931798], [10.71990966796875, 43.71941051931798]], [[10.71441650390625, 43.71551552647326], [10.7171630859375, 43.70967303720619], [10.7171630859375, 43.71551552647326], [10.71441650390625, 43.71551552647326]], [[10.58807373046875, 43.70772554078383], [10.59356689453125, 43.705778044361466], [10.59356689453125, 43.70772554078383], [10.58807373046875, 43.70772554078383]], [[10.6292724609375, 43.69993555509439], [10.634765625, 43.69604056224968], [10.634765625, 43.69993555509439], [10.6292724609375, 43.69993555509439]], [[10.579833984375, 43.69409306582732], [10.58258056640625, 43.688250576560236], [10.58258056640625, 43.69409306582732], [10.579833984375, 43.69409306582732]], [[10.62103271484375, 43.6901980729826], [10.623779296875, 43.688250576560236], [10.623779296875, 43.6901980729826], [10.62103271484375, 43.6901980729826]], [[10.53863525390625, 43.68630308013788], [10.54412841796875, 43.68240808729316], [10.54412841796875, 43.68630308013788], [10.53863525390625, 43.68630308013788]], [[10.557861328125, 43.68240808729316], [10.55511474609375, 43.67851309444845], [10.5633544921875, 43.67851309444845], [10.557861328125, 43.68240808729316]], [[10.5633544921875, 43.67851309444845], [10.56610107421875, 43.67461810160373], [10.56610107421875, 43.67851309444845], [10.5633544921875, 43.67851309444845]], [[10.57159423828125, 43.68240808729316], [10.5743408203125, 43.6804605908708], [10.5743408203125, 43.68240808729316], [10.57159423828125, 43.68240808729316]], [[10.645751953125, 43.67851309444845], [10.64849853515625, 43.67656559802609], [10.64849853515625, 43.67851309444845], [10.645751953125, 43.67851309444845]], [[10.5853271484375, 43.65319564095778], [10.58807373046875, 43.65124814453542], [10.58807373046875, 43.65319564095778], [10.5853271484375, 43.65319564095778]], [[10.404052734375, 43.40975858816292], [10.40679931640625, 43.40781109174056], [10.40679931640625, 43.40975858816292], [10.404052734375, 43.40975858816292]], [[10.48095703125, 43.39417861678405], [10.4864501953125, 43.39028362393933], [10.4864501953125, 43.39417861678405], [10.48095703125, 43.39417861678405]], [[10.5633544921875, 43.343543709802724], [10.56610107421875, 43.34159621338036], [10.56610107421875, 43.343543709802724], [10.5633544921875, 43.343543709802724]], [[10.54962158203125, 43.158531549678635], [10.5523681640625, 43.154636556833914], [10.5523681640625, 43.158531549678635], [10.54962158203125, 43.158531549678635]]], [[[10.54412841796875, 43.63177318031183], [10.546875, 43.62982568388947], [10.54412841796875, 43.62982568388947], [10.54412841796875, 43.63177318031183]]], [[[10.52490234375, 43.688250576560236], [10.52490234375, 43.68240808729316], [10.5194091796875, 43.68240808729316], [10.5194091796875, 43.688250576560236], [10.52490234375, 43.688250576560236]]], [[[10.5194091796875, 43.688250576560236], [10.513916015625, 43.69214556940496], [10.5194091796875, 43.69214556940496], [10.5194091796875, 43.688250576560236]]], [[[10.513916015625, 43.69214556940496], [10.5084228515625, 43.69604056224968], [10.513916015625, 43.69604056224968], [10.513916015625, 43.69214556940496]]], [[[10.404052734375, 43.723305512162696], [10.404052734375, 43.71162053362855], [10.3985595703125, 43.71162053362855], [10.39581298828125, 43.723305512162696], [10.404052734375, 43.723305512162696]]], [[[10.48095703125, 43.73304299427449], [10.48370361328125, 43.73109549785213], [10.48095703125, 43.73109549785213], [10.48095703125, 43.73304299427449]]], [[[10.6292724609375, 43.74278047638629], [10.63201904296875, 43.73693798711921], [10.6292724609375, 43.73693798711921], [10.6292724609375, 43.74278047638629]]], [[[10.43426513671875, 43.76225544060988], [10.43701171875, 43.76030794418752], [10.43426513671875, 43.76030794418752], [10.43426513671875, 43.76225544060988]]], [[[10.4150390625, 43.79925787263469], [10.41229248046875, 43.78562539767818], [10.41229248046875, 43.79925787263469], [10.4150390625, 43.79925787263469]]], [[[10.60455322265625, 43.808995354746486], [10.601806640625, 43.807047858324125], [10.601806640625, 43.808995354746486], [10.60455322265625, 43.808995354746486]]]]}}]}