{"type": "FeatureCollection", "features": [{"type": "Feature", "properties": {"nome": "la Collina dell'Incontro", "kind": "origine", "regno": 1, "nota": "dove Rocco e Zara si incontrano (ORIGINE.md)", "margine_km": 2.21, "cella": "C2"}, "geometry": {"type": "Point", "coordinates": [9.415, 45.85]}}, {"type": "Feature", "properties": {"nome": "Coppelle di Spondalta (Luogo Antico)", "kind": "luogo_antico", "regno": 1, "margine_km": 2.6, "cella": "C2"}, "geometry": {"type": "Point", "coordinates": [9.4, 45.88]}}, {"type": "Feature", "properties": {"nome": "le Pietre Incise (Luogo Antico)", "kind": "luogo_antico", "regno": 2, "margine_km": 51.53, "cella": "G1"}, "geometry": {"type": "Point", "coordinates": [10.34, 46.02]}}, {"type": "Feature", "properties": {"nome": "le Rovine Ordinate (Luogo Antico)", "kind": "luogo_antico", "regno": 4, "margine_km": 2.41, "cella": "J8"}, "geometry": {"type": "Point", "coordinates": [11.28, 44.46]}}, {"type": "Feature", "properties": {"nome": "l'Altare di Roccia (Luogo Antico)", "kind": "luogo_antico", "regno": 5, "margine_km": 17.28, "cella": "G8"}, "geometry": {"type": "Point", "coordinates": [10.41, 44.43]}}, {"type": "Feature", "properties": {"nome": "le Pietre del Leone (Luogo Antico)", "kind": "luogo_antico", "regno": 6, "margine_km": 36.75, "cella": "I12"}, "geometry": {"type": "Point", "coordinates": [10.86, 43.4]}}, {"type": "Feature", "properties": {"nome": "Rivalba", "kind": "capitale", "regno": 1, "margine_km": 12.36, "cella": "B2"}, "geometry": {"type": "Point", "coordinates": [9.0830353, 45.8115623]}}, {"type": "Feature", "properties": {"nome": "Forterocca", "kind": "capitale", "regno": 2, "margine_km": 2.78, "cella": "F3"}, "geometry": {"type": "Point", "coordinates": [10.24288, 45.54942]}}, {"type": "Feature", "properties": {"nome": "Anguicorte", "kind": "capitale", "regno": 3, "margine_km": 9.53, "cella": "B4"}, "geometry": {"type": "Point", "coordinates": [9.1896346, 45.4641943]}}, {"type": "Feature", "properties": {"nome": "Savenza", "kind": "capitale", "regno": 4, "margine_km": 5.32, "cella": "K8"}, "geometry": {"type": "Point", "coordinates": [11.3426327, 44.4938203]}}, {"type": "Feature", "properties": {"nome": "Città-rovina della Selva", "kind": "capitale", "regno": 5, "margine_km": 3.27, "cella": "I9"}, "geometry": {"type": "Point", "coordinates": [10.806262296523613, 44.1587910883362]}}, {"type": "Feature", "properties": {"nome": "Leonalba", "kind": "capitale", "regno": 6, "margine_km": 36.17, "cella": "J10"}, "geometry": {"type": "Point", "coordinates": [11.2556404, 43.7697955]}}]}